"Partner ID","Partner Dealer ID","DT Dealer ID","Legal Name","DBA Name","Street","City","State","PostalCode","Phone","Fax","Status","CRM","Dealership's Customer Contact Email","Leads","Ford LPS PA Code","Urban Science Vendor Id","Shift Digital Vendor Id","Hide Videos","Dealer Groups","Profile ID"
"DRW","7","7","Flemington Subaru","Flemington Subaru - DARWIN","167 NJ-31","Flemington","NJ","08830","908-782-2025",,"A","Noemail@DarwinAutomotive.com","Noemail@DarwinAutomotive.com","Noemail@DarwinAutomotive.com",,,,,,
"DRW","50","50","Audi Freehold","Audi Freehold - DARWIN","3561 U.S. Route 9N","Freehold","NJ","07728","(732) 810-8000",,"I","Noemail@DarwinAutomotive.com","Noemail@DarwinAutomotive.com","Noemail@DarwinAutomotive.com",,,,,,
"DRW","55","55","Turner Kia","Turner Kia - DARWIN","4201 Chambers Hill Road","Harrisburg","PA","17111","717-564-2240",,"I","Noemail@DarwinAutomotive.com","Noemail@DarwinAutomotive.com","Noemail@DarwinAutomotive.com",,,,,,
"DRW","101","101","Hertz Car Sales Bonita Springs","Hertz Car Sales Bonita Springs - DARWIN","28480 South Tamiami Trail","Bonita Springs","FL","34134","239-494-8389",,"A","Noemail@DarwinAutomotive.com","Noemail@DarwinAutomotive.com","Noemail@DarwinAutomotive.com",,,,,,
"DRW","104","104","Hertz Car Sales Marietta","Hertz Car Sales Marietta - DARWIN","1551 Cobb Pkwy S","Marietta","GA","30060","770-285-2875",,"A","Noemail@DarwinAutomotive.com","Noemail@DarwinAutomotive.com","Noemail@DarwinAutomotive.com",,,,,,
"DRW","106","106","Hertz Car Sales Orlando","Hertz Car Sales Orlando - DARWIN","6060 S Semoran Blvd","Orlando","FL","32822","407-315-3655","407-315-9440","A","Noemail@DarwinAutomotive.com","Noemail@DarwinAutomotive.com","Noemail@DarwinAutomotive.com",,,,,,
"DRW","113","113","Hertz Car Sales Tampa","Hertz Car Sales Tampa - DARWIN","11608 N Florida Ave","Tampa","FL","33612","813-931-2361",,"A","Noemail@DarwinAutomotive.com","Noemail@DarwinAutomotive.com","Noemail@DarwinAutomotive.com",,,,,,
"DRW","264","264","Arapahoe Hyundai","Arapahoe Hyundai - DARWIN","9899 E. Arapahoe Road","Centennial","CO","80112","(303) 539-1700",,"A","Noemail@DarwinAutomotive.com","Noemail@DarwinAutomotive.com","Noemail@DarwinAutomotive.com",,,,,,
"DRW","1542","1542","Boardwalk Nissan","Boardwalk Nissan - DARWIN","1 Bair Island Road","Redwood City","CA","94063","650-309-1308",,"A","Noemail@DarwinAutomotive.com","Noemail@DarwinAutomotive.com","Noemail@DarwinAutomotive.com",,,,,,
"DRW","1548","1548","First Team Subaru","First Team Subaru - DARWIN","4834 Bridge Road","Suffolk","VA","23435","757-998-2979",,"A","Noemail@DarwinAutomotive.com","Noemail@DarwinAutomotive.com","Noemail@DarwinAutomotive.com",,,,,,
"DRW","1549","1549","First Team Toyota","First Team Toyota - DARWIN","3400 Western Branch Blvd","Chesapeake","VA","23321","757-600-4479",,"A","Noemail@DarwinAutomotive.com","Noemail@DarwinAutomotive.com","Noemail@DarwinAutomotive.com",,,,,,
"DRW","1550","1550","First Team Kia","First Team Kia - DARWIN","4834A Bridge Rd","Suffolk","VA","23435","757-301-4174",,"A","Noemail@DarwinAutomotive.com","Noemail@DarwinAutomotive.com","Noemail@DarwinAutomotive.com",,,,,,
"DRW","1551","1551","First Team Honda","First Team Honda - DARWIN","3444 Western Branch Blvd","Chesapeake","VA","23321","757-337-6592",,"A","Noemail@DarwinAutomotive.com","Noemail@DarwinAutomotive.com","Noemail@DarwinAutomotive.com",,,,,,
"DRW","1559","1559","Fort Collins Kia","Fort Collins Kia - DARWIN","2489 S College Avenue","Fort Collins","CO","80525","(970) 480-0715",,"A","Noemail@DarwinAutomotive.com","Noemail@DarwinAutomotive.com","Noemail@DarwinAutomotive.com",,,,,,
"DRW","1560","1560","Fort Collins Nissan","Fort Collins Nissan - DARWIN","5811 S College Avenue","Fort Collins","CO","80525","(970) 282-1400",,"A","Noemail@DarwinAutomotive.com","Noemail@DarwinAutomotive.com","Noemail@DarwinAutomotive.com",,,,,,
"DRW","1581","1581","Ganley CDJR of Aurora","Ganley CDJR of Aurora - DARWIN","161 W Garfield Rd","Aurora","OH","44202","(330) 562-2600",,"A","Noemail@DarwinAutomotive.com","Noemail@DarwinAutomotive.com","Noemail@DarwinAutomotive.com",,,,,,
"DRW","1666","1666","Audi Mechanicsburg","Audi Mechanicsburg - DARWIN","6671 Carlisle Pike","Mechanicsburg","PA","17050","888-903-2783",,"A","Noemail@DarwinAutomotive.com","Noemail@DarwinAutomotive.com","Noemail@DarwinAutomotive.com",,,,,,
"DRW","1688","1688","Hudson Nissan of Charleston","Hudson Nissan of Charleston - DARWIN","1714 Savannah Highway","Charleston","SC","29407","843 326 4581",,"A","Noemail@DarwinAutomotive.com","Noemail@DarwinAutomotive.com","Noemail@DarwinAutomotive.com",,,,,,
"DRW","1697","1697","Herb Chambers Mercedes-Benz Commercial Vans Boston","Herb Chambers Mercedes-Benz Commercial Vans Boston - DARWIN","259 McGrath Highway","Somerville","MA","02143","877-343-9294",,"A","Noemail@DarwinAutomotive.com","Noemail@DarwinAutomotive.com","Noemail@DarwinAutomotive.com",,,,,,
"DRW","1698","1698","Herb Chambers Audi / Porsche of Burlington","Herb Chambers Audi / Porsche of Burlington - DARWIN","62 Cambridge St","Burlington","MA","01803","844-443-1847",,"A","Noemail@DarwinAutomotive.com","Noemail@DarwinAutomotive.com","Noemail@DarwinAutomotive.com",,,,,,
"DRW","1699","1699","Bentley RollsRoyce Lamborghini Maserati Alfa Romeo","Bentley RollsRoyce Lamborghini Maserati Alfa Romeo - DARWIN","533 Boston Road Route 20","Wayland","MA","01778","833-389-0976",,"A","Noemail@DarwinAutomotive.com","Noemail@DarwinAutomotive.com","Noemail@DarwinAutomotive.com",,,,,,
"DRW","1700","1700","Herb Chambers BMW of Sudbury","Herb Chambers BMW of Sudbury - DARWIN","128 Boston Post Road","Sudbury","MA","01776","877-930-4257",,"A","Noemail@DarwinAutomotive.com","Noemail@DarwinAutomotive.com","Noemail@DarwinAutomotive.com",,,,,,
"DRW","1702","1702","Herb Chambers BMW / MINI of Boston","Herb Chambers BMW / MINI of Boston - DARWIN","1168 Commonwealth Ave","Boston","MA","02134","844-901-3125",,"A","Noemail@DarwinAutomotive.com","Noemail@DarwinAutomotive.com","Noemail@DarwinAutomotive.com",,,,,,
"DRW","1703","1703","Herb Chambers Honda of Seekonk","Herb Chambers Honda of Seekonk - DARWIN","185 Taunton Ave","Seekonk","MA","02771","833-406-0978",,"A","Noemail@DarwinAutomotive.com","Noemail@DarwinAutomotive.com","Noemail@DarwinAutomotive.com",,,,,,
"DRW","1708","1708","HC Flagship Motorcars Commercial Vans of Lynnfield","HC Flagship Motorcars Commercial Vans of Lynnfield - DARWIN","385 Broadway Street","Lynnfield","MA","01905","855-913-4239",,"A","Noemail@DarwinAutomotive.com","Noemail@DarwinAutomotive.com","Noemail@DarwinAutomotive.com",,,,,,
"DRW","1709","1709","Herb Chambers Honda in Boston","Herb Chambers Honda in Boston - DARWIN","720 Morrissey Blvd","Dorchester","MA","02122","855-922-2658",,"A","Noemail@DarwinAutomotive.com","Noemail@DarwinAutomotive.com","Noemail@DarwinAutomotive.com",,,,,,
"DRW","1714","1714","Herb Chambers Honda of Westborough","Herb Chambers Honda of Westborough - DARWIN","350 Turnpike Rd Route 9","Westborough","MA","01581","844-913-2268",,"A","Noemail@DarwinAutomotive.com","Noemail@DarwinAutomotive.com","Noemail@DarwinAutomotive.com",,,,,,
"DRW","1715","1715","Herb Chambers Honda of Burlington","Herb Chambers Honda of Burlington - DARWIN","33 Cambridge Street","Burlington","MA","01803","844-906-2882",,"A","Noemail@DarwinAutomotive.com","Noemail@DarwinAutomotive.com","Noemail@DarwinAutomotive.com",,,,,,
"DRW","1716","1716","Herb Chambers Volvo Norwood","Herb Chambers Volvo Norwood - DARWIN","1120 Boston Providence Hwy","Norwood","MA","02062","833-759-0484",,"A","Noemail@DarwinAutomotive.com","Noemail@DarwinAutomotive.com","Noemail@DarwinAutomotive.com",,,,,,
"DRW","1717","1717","Herb Chambers Porsche of Boston","Herb Chambers Porsche of Boston - DARWIN","1172 Commonwealth Ave","Boston","MA","02191","855-939-4278",,"A","Noemail@DarwinAutomotive.com","Noemail@DarwinAutomotive.com","Noemail@DarwinAutomotive.com",,,,,,
"DRW","1718","1718","Herb Chambers Land Rover / Jaguar Sudbury","Herb Chambers Land Rover / Jaguar Sudbury - DARWIN","83 Boston Post Rd. Rte 20","Sudbury","MA","01776","833-408-0989",,"A","Noemail@DarwinAutomotive.com","Noemail@DarwinAutomotive.com","Noemail@DarwinAutomotive.com",,,,,,
"DRW","1719","1719","Herb Chambers Kia of Burlington","Herb Chambers Kia of Burlington - DARWIN","93 Cambridge St Rt 3A","Burlington","MA","01803","833-780-0359",,"A","Noemail@DarwinAutomotive.com","Noemail@DarwinAutomotive.com","Noemail@DarwinAutomotive.com",,,,,,
"DRW","1720","1720","Herb Chambers Mercedes-Benz of Natick","Herb Chambers Mercedes-Benz of Natick - DARWIN","1186 Commonwealth Avenue","Natick","MA","01760","855-922-3582",,"A","Noemail@DarwinAutomotive.com","Noemail@DarwinAutomotive.com","Noemail@DarwinAutomotive.com",,,,,,
"DRW","1741","1741","Herb Chambers INFINITI of Westborough","Herb Chambers INFINITI of Westborough - DARWIN","312 Turnpike Rd","Westborough","MA","01581","855-921-4025",,"A","Noemail@DarwinAutomotive.com","Noemail@DarwinAutomotive.com","Noemail@DarwinAutomotive.com",,,,,,
"DRW","1771","1771","Brewster Subaru","Brewster Subaru - DARWIN","1021 NY-22","Brewster","NY","10509","(845) 278-8300",,"A","Noemail@DarwinAutomotive.com","Noemail@DarwinAutomotive.com","Noemail@DarwinAutomotive.com",,,,,,
"DRW","1850","1850","Audi Birmingham","Audi Birmingham - DARWIN","3001 TOM WILLIAMS WAY","IRONDALE","AL","35210","(888) 810-0776",,"A","Noemail@DarwinAutomotive.com","Noemail@DarwinAutomotive.com","Noemail@DarwinAutomotive.com",,,,,,
"DRW","1902","1902","Audi West Houston","Audi West Houston - DARWIN","15865 Katy Fwy","Houston","TX","77094","281-899-3400",,"A","Noemail@DarwinAutomotive.com","Noemail@DarwinAutomotive.com","Noemail@DarwinAutomotive.com",,,,,,
"DRW","1911","1911","Audi Central Houston","Audi Central Houston - DARWIN","2120 Southwest Fwy","Houston","TX","77098","713-893-1833",,"A","Noemail@DarwinAutomotive.com","Noemail@DarwinAutomotive.com","Noemail@DarwinAutomotive.com",,,,,,
"DRW","1949","1949","Thomas Buick GMC","Thomas Buick GMC - DARWIN","750 Eisenhower Blvd","Johnstown ","PA","15904","814-266-5844",,"A","Noemail@DarwinAutomotive.com","Noemail@DarwinAutomotive.com","Noemail@DarwinAutomotive.com",,,,,,
"DRW","1951","1951","Thomas Team Honda","Thomas Team Honda - DARWIN","1920 Bedford Street","Johnstown","PA","15904","814-262-2140",,"A","Noemail@DarwinAutomotive.com","Noemail@DarwinAutomotive.com","Noemail@DarwinAutomotive.com",,,,,,
"DRW","1952","1952","Thomas Cumberland Subaru Hyundai","Thomas Cumberland Subaru Hyundai - DARWIN","10325 Mount Savage Rd NW","Cumberland","MD","21502","(888) 724-3949",,"A","Noemail@DarwinAutomotive.com","Noemail@DarwinAutomotive.com","Noemail@DarwinAutomotive.com",,,,,,
"DRW","2113","2113","Audi Peabody","Audi Peabody - DARWIN","252 Andover St","Peabody","MA","01960","888-435-8897",,"A","Noemail@DarwinAutomotive.com","Noemail@DarwinAutomotive.com","Noemail@DarwinAutomotive.com",,,,,,
"DRW","2158","2158","Audi Pensacola","Audi Pensacola - DARWIN","303 Pensacola Blvd","Pensacola","FL","32501","888-708-1354",,"A","Noemail@DarwinAutomotive.com","Noemail@DarwinAutomotive.com","Noemail@DarwinAutomotive.com",,,,,,
"DRW","2200","2200","Jack Daniels Audi of Upper Saddle River","Jack Daniels Audi of Upper Saddle River - DARWIN","243 Route 17 South","Upper Saddle River","NJ","07458","(201) 252-1500",,"A","Noemail@DarwinAutomotive.com","Noemail@DarwinAutomotive.com","Noemail@DarwinAutomotive.com",,,,,,
"DRW","2201","2201","Jack Daniels Audi Paramus","Jack Daniels Audi Paramus - DARWIN","123 Route 4 West","Paramus","NJ","07652","201-853-2300",,"A","Noemail@DarwinAutomotive.com","Noemail@DarwinAutomotive.com","Noemail@DarwinAutomotive.com",,,,,,
"DRW","2202","2202","Jack Daniels Kia","Jack Daniels Kia - DARWIN","28-09 Broadway","Fair Lawn","NJ","07410","(201) 254-1500",,"A","Noemail@DarwinAutomotive.com","Noemail@DarwinAutomotive.com","Noemail@DarwinAutomotive.com",,,,,,
"DRW","2213","2213","Allen Hyundai","Allen Hyundai - DARWIN","624 E Pass Road","Gulfport","MS","39507","228-539-5555",,"A","Noemail@DarwinAutomotive.com","Noemail@DarwinAutomotive.com","Noemail@DarwinAutomotive.com",,,,,,
"DRW","2248","2248","North Country Subaru","North Country Subaru - DARWIN","616 Quaker Road","Queensbury","NY","12804","888-733-6103",,"A","Noemail@DarwinAutomotive.com","Noemail@DarwinAutomotive.com","Noemail@DarwinAutomotive.com",,,,,,
"DRW","2283","2283","Mercedes-Benz Manhattan","Mercedes-Benz Manhattan - DARWIN","770 11th Avenue","Manhattan","NY","10019","646-846-6401",,"A","Noemail@DarwinAutomotive.com","Noemail@DarwinAutomotive.com","Noemail@DarwinAutomotive.com",,,,,,
"DRW","2416","2416","Jaguar Land Rover Glen Cove","Jaguar Land Rover Glen Cove - DARWIN","70 Cedar Swamp Rd","Glen Cove","NY","11542","516-674-8500",,"A","Noemail@DarwinAutomotive.com","Noemail@DarwinAutomotive.com","Noemail@DarwinAutomotive.com",,,,,,
"DRW","2433","2433","Jaguar Land Rover Southampton","Jaguar Land Rover Southampton - DARWIN","345 Hampton Road","Southampton","NY","11968","631-287-4141",,"A","Noemail@DarwinAutomotive.com","Noemail@DarwinAutomotive.com","Noemail@DarwinAutomotive.com",,,,,,
"DRW","2440","2440","Harmony Motors","Harmony Motors - DARWIN","621 Brevard Road","Asheville","NC","28806","828-232-4000",,"A","Noemail@DarwinAutomotive.com","Noemail@DarwinAutomotive.com","Noemail@DarwinAutomotive.com",,,,,,
"DRW","2441","2441","Jim Ellis Volvo Mall of Georgia","Jim Ellis Volvo Mall of Georgia - DARWIN","3626 Buford Drive","Buford","GA","30519","470-655-3700",,"A","Noemail@DarwinAutomotive.com","Noemail@DarwinAutomotive.com","Noemail@DarwinAutomotive.com",,,,,,
"DRW","2452","2452","Kuni BMW","Kuni BMW - DARWIN","10999 SW Canyon Road","Beaverton","OR","97005","(503) 828-0936",,"A","Noemail@DarwinAutomotive.com","Noemail@DarwinAutomotive.com","Noemail@DarwinAutomotive.com",,,,,,
"DRW","2453","2453","Audi San Diego","Audi San Diego - DARWIN","9010 Miramar Rd","San Diego","CA","92126","855-971-8832",,"A","Noemail@DarwinAutomotive.com","Noemail@DarwinAutomotive.com","Noemail@DarwinAutomotive.com",,,,,,
"DRW","2458","2458","Audi Flatirons","Audi Flatirons - DARWIN","13321 W Midway Blvd","Broomfield","CO","80020","(877) 356-6921",,"A","Noemail@DarwinAutomotive.com","Noemail@DarwinAutomotive.com","Noemail@DarwinAutomotive.com",,,,,,
"DRW","2515","2515","Kuni Auto Center","Kuni Auto Center - DARWIN","3725 SW Cedar Hills Blvd","Beaverton","CO","97005","(503) 928-5670",,"A","Noemail@DarwinAutomotive.com","Noemail@DarwinAutomotive.com","Noemail@DarwinAutomotive.com",,,,,,
"DRW","2582","2582","Volkswagen of Boardman","Volkswagen of Boardman - DARWIN","7850 MARKET ST","Boardman","OH","44512","(833)-556-5420",,"A","Noemail@DarwinAutomotive.com","Noemail@DarwinAutomotive.com","Noemail@DarwinAutomotive.com",,,,,,
"DRW","2601","2601","Mercedes-Benz of Cherry Hill","Mercedes-Benz of Cherry Hill - DARWIN","2151 Rt 70 W","Cherry Hill","NJ","08002","856-663-3200",,"A","Noemail@DarwinAutomotive.com","Noemail@DarwinAutomotive.com","Noemail@DarwinAutomotive.com",,,,,,
"DRW","2602","2602","Cherry Hill Porsche, Audi, & VW","Cherry Hill Porsche, Audi, & VW - DARWIN","2261 Rt 70 W","Cherry Hill","NJ","08002","(856) 665-5370",,"A","Noemail@DarwinAutomotive.com","Noemail@DarwinAutomotive.com","Noemail@DarwinAutomotive.com",,,,,,
"DRW","2656","2656","Jaguar Land Rover San Diego","Jaguar Land Rover San Diego - DARWIN","9455 Clayton Dr","San Diego","CA","92126","877-629-6194",,"A","Noemail@DarwinAutomotive.com","Noemail@DarwinAutomotive.com","Noemail@DarwinAutomotive.com",,,,,,
"DRW","2658","2658","Acura of Avon","Acura of Avon - DARWIN","75 Albany Tpk","Canton","CT","06019","860-693-6981",,"A","Noemail@DarwinAutomotive.com","Noemail@DarwinAutomotive.com","Noemail@DarwinAutomotive.com",,,,,,
"DRW","2660","2660","Acura of Milford","Acura of Milford - DARWIN","1503 Boston Post Rd","Milford","CT","06460","203-877-4333",,"A","Noemail@DarwinAutomotive.com","Noemail@DarwinAutomotive.com","Noemail@DarwinAutomotive.com",,,,,,
"DRW","2661","2661","Honda of Watertown","Honda of Watertown - DARWIN","816 Straits Tpk","Watertown","CT","06795","860 945 3611",,"A","Noemail@DarwinAutomotive.com","Noemail@DarwinAutomotive.com","Noemail@DarwinAutomotive.com",,,,,,
"DRW","2664","2664","Westbrook Honda","Westbrook Honda - DARWIN","1 Flat Rock Place","Westbrook","CT","06498","860 399 9300",,"A","Noemail@DarwinAutomotive.com","Noemail@DarwinAutomotive.com","Noemail@DarwinAutomotive.com",,,,,,
"DRW","2666","2666","Porsche San Diego","Porsche San Diego - DARWIN","9020 Miramar Rd","San Diego","CA","92126","877-660-2694",,"A","Noemail@DarwinAutomotive.com","Noemail@DarwinAutomotive.com","Noemail@DarwinAutomotive.com",,,,,,
"DRW","2723","2723","Checkered Flag VW","Checkered Flag VW - DARWIN","3025 Virginia Beach Blvd","Virginia Beach","VA","23452","(757) 260-5916",,"A","Noemail@DarwinAutomotive.com","Noemail@DarwinAutomotive.com","Noemail@DarwinAutomotive.com",,,,,,
"DRW","2758","2758","Audi Palo Alto","Audi Palo Alto - DARWIN","1730 Embarcadero Rd","Palo Alto","CA","94303","1-888-658-3065",,"A","Noemail@DarwinAutomotive.com","Noemail@DarwinAutomotive.com","Noemail@DarwinAutomotive.com",,,,,,
"DRW","2795","2795","Checkered Flag Honda - Darwin","Checkered Flag Honda - Darwin - DARWIN","6541 E Virginia Beach Blvd","Norfolk","VA","23502","(757) 687-3424",,"A","Noemail@DarwinAutomotive.com","Noemail@DarwinAutomotive.com","Noemail@DarwinAutomotive.com",,,,,,
"DRW","2805","2805","Warren Henry Infiniti","Warren Henry Infiniti - DARWIN","2300 NE 151st St","North Miami","FL","33181","(305) 652-9999",,"A","Noemail@DarwinAutomotive.com","Noemail@DarwinAutomotive.com","Noemail@DarwinAutomotive.com",,,,,,
"DRW","2812","2812","Audi Wesley Chapel","Audi Wesley Chapel - DARWIN","2500 Lajuana Blvd.","","FL","33543","(813) 607-3100",,"A","Noemail@DarwinAutomotive.com","Noemail@DarwinAutomotive.com","Noemail@DarwinAutomotive.com",,,,,,
"DRW","2843","2843","Kuni Audi Shawnee Mission","Kuni Audi Shawnee Mission - DARWIN","6601 E Frontage Rd","Merriam","KS","66202","913-249-3484",,"A","Noemail@DarwinAutomotive.com","Noemail@DarwinAutomotive.com","Noemail@DarwinAutomotive.com",,,,,,
"DRW","2861","2861","Kuni Honda on Arapahoe","Kuni Honda on Arapahoe - DARWIN","10750 E Arapahoe Rd","Centennial","CO","80112","303-708-2000",,"A","Noemail@DarwinAutomotive.com","Noemail@DarwinAutomotive.com","Noemail@DarwinAutomotive.com",,,,,,
"DRW","2863","2863","Land Rover Denver","Land Rover Denver - DARWIN","6160 S. Broadway","Littleton","CO","80121","303-347-1500",,"A","Noemail@DarwinAutomotive.com","Noemail@DarwinAutomotive.com","Noemail@DarwinAutomotive.com",,,,,,
"DRW","2876","2876","Baxter Volkswagen Omaha","Baxter Volkswagen Omaha - DARWIN","1722 Burt St","Omaha","NE","68118","402-397-8200",,"A","Noemail@DarwinAutomotive.com","Noemail@DarwinAutomotive.com","Noemail@DarwinAutomotive.com",,,,,,
"DRW","2894","2894","AutoTeam Delaware Cadillac, Subaru, Kia","AutoTeam Delaware Cadillac, Subaru, Kia - DARWIN","1606 Pennsylvania Avenue","Wilmington","DE","19806","866-328-8069",,"A","Noemail@DarwinAutomotive.com","Noemail@DarwinAutomotive.com","Noemail@DarwinAutomotive.com",,,,,,
"DRW","2921","2921","Beyer Subaru of Alexandria","Beyer Subaru of Alexandria - DARWIN","7416 Richmond Highway","Alexandria","VA","22306","866-980-5791",,"A","Noemail@DarwinAutomotive.com","Noemail@DarwinAutomotive.com","Noemail@DarwinAutomotive.com",,,,,,
"DRW","2971","2971","Preston BMW","Preston BMW - DARWIN","7830 Market Street","Boardman","OH","44512","(330)-708-7332",,"A","Noemail@DarwinAutomotive.com","Noemail@DarwinAutomotive.com","Noemail@DarwinAutomotive.com",,,,,,
"DRW","2976","2976","Lexus of Greenwood Village","Lexus of Greenwood Village - DARWIN","5150 S. Quebec Street","Greenwood Village","CO","80111","(303) 798-9500",,"A","Noemail@DarwinAutomotive.com","Noemail@DarwinAutomotive.com","Noemail@DarwinAutomotive.com",,,,,,
"DRW","3010","3010","Texas Cars Direct","Texas Cars Direct - DARWIN","2718 Forest Lane","Dallas","TX","75234","9722433400",,"A","Noemail@DarwinAutomotive.com","Noemail@DarwinAutomotive.com","Noemail@DarwinAutomotive.com",,,,,,
"DRW","3021","3021","Audi El Paso","Audi El Paso - DARWIN","1444 Airway Blvd","El Paso","TX","79925","(915) 401-3260",,"A","Noemail@DarwinAutomotive.com","Noemail@DarwinAutomotive.com","Noemail@DarwinAutomotive.com",,,,,,
"DRW","3049","3049","Warren Henry Land Rover South Dade","Warren Henry Land Rover South Dade - DARWIN","16750 S Dixie Highway","Miami","FL","33157","305-909-4000",,"A","Noemail@DarwinAutomotive.com","Noemail@DarwinAutomotive.com","Noemail@DarwinAutomotive.com",,,,,,
"DRW","3051","3051","Jaguar Land Rover North Dade","Jaguar Land Rover North Dade - DARWIN","2300 NE 151st St","North Miami","FL","33181","305-653-1400",,"A","Noemail@DarwinAutomotive.com","Noemail@DarwinAutomotive.com","Noemail@DarwinAutomotive.com",,,,,,
"DRW","3052","3052","Warren Henry Jaguar","Warren Henry Jaguar - DARWIN","20850 NW 2nd Ave","Miami","FL","33169","305-652-9999",,"A","Noemail@DarwinAutomotive.com","Noemail@DarwinAutomotive.com","Noemail@DarwinAutomotive.com",,,,,,
"DRW","3085","3085","Rock Hill Nissan","Rock Hill Nissan - DARWIN","550 Galleria Blvd","Rock Hill","SC","29730","803-366-8171",,"A","Noemail@DarwinAutomotive.com","Noemail@DarwinAutomotive.com","Noemail@DarwinAutomotive.com",,,,,,
"DRW","3162","3162","Kelly Nissan of Lynnfield","Kelly Nissan of Lynnfield - DARWIN","275 Broadway","Lynnfield","MA","01940","(781) 598-1234",,"A","Noemail@DarwinAutomotive.com","Noemail@DarwinAutomotive.com","Noemail@DarwinAutomotive.com",,,,,,
"DRW","3164","3164","Kelly Honda","Kelly Honda - DARWIN","540 Lynnway","Lynn","MA","01905","844-837-9997",,"A","Noemail@DarwinAutomotive.com","Noemail@DarwinAutomotive.com","Noemail@DarwinAutomotive.com",,,,,,
"DRW","3165","3165","Kelly INFINITI","Kelly INFINITI - DARWIN","155 Andover Steet","Danvers","MA","01923","978-575-5172",,"A","Noemail@DarwinAutomotive.com","Noemail@DarwinAutomotive.com","Noemail@DarwinAutomotive.com",,,,,,
"DRW","3166","3166","Kelly VW","Kelly VW - DARWIN","72 Andover Street","Danvers","MA","01923","978-208-2830",,"A","Noemail@DarwinAutomotive.com","Noemail@DarwinAutomotive.com","Noemail@DarwinAutomotive.com",,,,,,
"DRW","3167","3167","Kelly Nissan of Woburn","Kelly Nissan of Woburn - DARWIN","95 Cedar Street","Stoneham","MA","01801","844-822-9236",,"A","Noemail@DarwinAutomotive.com","Noemail@DarwinAutomotive.com","Noemail@DarwinAutomotive.com",,,,,,
"DRW","3251","3251","Jim Ellis Kia of Kennesaw","Jim Ellis Kia of Kennesaw - DARWIN","1221 Auto Park Drive NW","Kennesaw","GA","30144","(770) 423-4404",,"A","Noemail@DarwinAutomotive.com","Noemail@DarwinAutomotive.com","Noemail@DarwinAutomotive.com",,,,,,
"DRW","3330","3330","Lumberton Honda","Lumberton Honda - DARWIN","301 Wintergreen Drive","Lumberton","NC","28358","(910) 739-9871",,"A","Noemail@DarwinAutomotive.com","Noemail@DarwinAutomotive.com","Noemail@DarwinAutomotive.com",,,,,,
"DRW","3332","3332","Airport Chrysler Dodge Jeep","Airport Chrysler Dodge Jeep - DARWIN","5751 Eagle Vail Drive","Orlando","FL","32822","407-917-5173",,"A","Noemail@DarwinAutomotive.com","Noemail@DarwinAutomotive.com","Noemail@DarwinAutomotive.com",,,,,,
"DRW","3349","3349","Lumberton Kia","Lumberton Kia - DARWIN","3505 East Elizabethtown Rd","Lumberton","NC","28358","(910) 739-2405",,"A","Noemail@DarwinAutomotive.com","Noemail@DarwinAutomotive.com","Noemail@DarwinAutomotive.com",,,,,,
"DRW","3354","3354","Schaller Honda","Schaller Honda - DARWIN","1 Veterans Drive","New Britain","CT","06051","(860) 826-2081",,"A","Noemail@DarwinAutomotive.com","Noemail@DarwinAutomotive.com","Noemail@DarwinAutomotive.com",,,,,,
"DRW","3356","3356","Schaller Subaru Berlin","Schaller Subaru Berlin - DARWIN","34 Frontage Road","Berlin","CT","06037","860-826-2023",,"A","Noemail@DarwinAutomotive.com","Noemail@DarwinAutomotive.com","Noemail@DarwinAutomotive.com",,,,,,
"DRW","3361","3361","Boast VW","Boast VW - DARWIN","4827 14th St W","Bradenton","FL","34207","941-755-8585",,"A","Noemail@DarwinAutomotive.com","Noemail@DarwinAutomotive.com","Noemail@DarwinAutomotive.com",,,,,,
"DRW","3375","3375","Audi Henderson","Audi Henderson - DARWIN","7740 Eastgate Rd","Henderson","NV","89014","702-982-4600",,"A","Noemail@DarwinAutomotive.com","Noemail@DarwinAutomotive.com","Noemail@DarwinAutomotive.com",,,,,,
"DRW","3405","3405","Holman Audi Pembroke Pines","Holman Audi Pembroke Pines - DARWIN","15000 Sheridan St","Pembroke Pines","FL","33331","888-378-8973",,"A","Noemail@DarwinAutomotive.com","Noemail@DarwinAutomotive.com","Noemail@DarwinAutomotive.com",,,,,,
"DRW","3406","3406","Holman Audi Fort Washington","Holman Audi Fort Washington - DARWIN","428 Pennsylvania Ave","Fort Washington","PA","19034","888-892-5114",,"A","Noemail@DarwinAutomotive.com","Noemail@DarwinAutomotive.com","Noemail@DarwinAutomotive.com",,,,,,
"DRW","3407","3407","Holman BMW of Mount Laurel","Holman BMW of Mount Laurel - DARWIN","1220 Route 73","Mount Laurel","NJ","08054","856-840-1400",,"A","Noemail@DarwinAutomotive.com","Noemail@DarwinAutomotive.com","Noemail@DarwinAutomotive.com",,,,,,
"DRW","3409","3409","Holman BMW of Pembroke Pines","Holman BMW of Pembroke Pines - DARWIN","14800 Sheridan St","Pembroke Pines","FL","33331"," 877-840-1357",,"A","Noemail@DarwinAutomotive.com","Noemail@DarwinAutomotive.com","Noemail@DarwinAutomotive.com",,,,,,
"DRW","3414","3414","Holman Honda of Fort Lauderdale","Holman Honda of Fort Lauderdale - DARWIN","12 East Sunrise Blvd","Fort Lauderdale","FL","33304","(954) 607-6648",,"A","Noemail@DarwinAutomotive.com","Noemail@DarwinAutomotive.com","Noemail@DarwinAutomotive.com",,,,,,
"DRW","3415","3415","Holman Infiniti","Holman Infiniti - DARWIN","577 Route 38 West","Maple Shade","NJ","08052","856-231-4400",,"A","Noemail@DarwinAutomotive.com","Noemail@DarwinAutomotive.com","Noemail@DarwinAutomotive.com",,,,,,
"DRW","3416","3416","Holman BMW of Fort Lauderdale","Holman BMW of Fort Lauderdale - DARWIN","1441 South Federal Hwy","Fort Lauderdale","FL","33316","877-728-4973",,"A","Noemail@DarwinAutomotive.com","Noemail@DarwinAutomotive.com","Noemail@DarwinAutomotive.com",,,,,,
"DRW","3418","3418","Holman Lauderdale MINI","Holman Lauderdale MINI - DARWIN","2125 S Federal Hwy","Fort Lauderdale","FL","33316","888-557-5371",,"A","Noemail@DarwinAutomotive.com","Noemail@DarwinAutomotive.com","Noemail@DarwinAutomotive.com",,,,,,
"DRW","3421","3421","Holman MINI of Mount Laurel","Holman MINI of Mount Laurel - DARWIN","1311 Route 73","Mount Laurel","NJ","08054","(856) 394-5575",,"A","Noemail@DarwinAutomotive.com","Noemail@DarwinAutomotive.com","Noemail@DarwinAutomotive.com",,,,,,
"DRW","3422","3422","Holman Princeton BMW","Holman Princeton BMW - DARWIN","3630 Quakerbridge Rd","Hamilton","NJ","08619","",,"A","Noemail@DarwinAutomotive.com","Noemail@DarwinAutomotive.com","Noemail@DarwinAutomotive.com",,,,,,
"DRW","3452","3452","Friendly Kia","Friendly Kia - DARWIN","5819 US Hwy 19","New Port Richey","FL","34652","833-508-5533",,"A","Noemail@DarwinAutomotive.com","Noemail@DarwinAutomotive.com","Noemail@DarwinAutomotive.com",,,,,,
"DRW","3641","3641","South Shore Subaru","South Shore Subaru - DARWIN","305 East Sunrise Highway","Lindenhurst","NY","11757","833-361-6555",,"A","Noemail@DarwinAutomotive.com","Noemail@DarwinAutomotive.com","Noemail@DarwinAutomotive.com",,,,,,
"DRW","3642","3642","Garden City CDJR","Garden City CDJR - DARWIN","283 N Franklin Avenue","Hempstead","NY","11590","516-554-0707",,"A","Noemail@DarwinAutomotive.com","Noemail@DarwinAutomotive.com","Noemail@DarwinAutomotive.com",,,,,,
"DRW","3643","3643","Grand Prix Subaru","Grand Prix Subaru - DARWIN","500 South Broadway","Hicksville","NY","11801","888-868-1379",,"A","Noemail@DarwinAutomotive.com","Noemail@DarwinAutomotive.com","Noemail@DarwinAutomotive.com",,,,,,
"DRW","3650","3650","Westbury Chrysler Dodge Jeep RAM","Westbury Chrysler Dodge Jeep RAM - DARWIN","100 Jericho Turnpike","Jericho","NY","11753","516-997-3900",,"A","Noemail@DarwinAutomotive.com","Noemail@DarwinAutomotive.com","Noemail@DarwinAutomotive.com",,,,,,
"DRW","3651","3651","Westbury Alfa Romeo Fiat","Westbury Alfa Romeo Fiat - DARWIN","928 Jericho Turnpike","Westbury","NY","11590","516-874-5517",,"A","Noemail@DarwinAutomotive.com","Noemail@DarwinAutomotive.com","Noemail@DarwinAutomotive.com",,,,,,
"DRW","3652","3652","Volvo Cars of Huntington","Volvo Cars of Huntington - DARWIN","345 West Jericho Turnpike","Westbury","NY","11743","888-451-3548",,"A","Noemail@DarwinAutomotive.com","Noemail@DarwinAutomotive.com","Noemail@DarwinAutomotive.com",,,,,,
"DRW","3782","3782","Holman Motorcars Fort Lauderdale","Holman Motorcars Fort Lauderdale - DARWIN","900 E Sunrise Blvd","Ft Lauderdale","FL","33304","954-793-4858",,"A","Noemail@DarwinAutomotive.com","Noemail@DarwinAutomotive.com","Noemail@DarwinAutomotive.com",,,,,,
"DRW","3828","3828","Steve White Auto Group","Steve White Auto Group - DARWIN","100 Duvall Dr.","Greenville","SC","29607","864-288-8300",,"A","Noemail@DarwinAutomotive.com","Noemail@DarwinAutomotive.com","Noemail@DarwinAutomotive.com",,,,,,
"DRW","3982","3982","Fathers & Sons Auto Group","Fathers & Sons Auto Group - DARWIN","434 Memorial Ave","West Springfield","MA","01089","413-785-1631",,"A","Noemail@DarwinAutomotive.com","Noemail@DarwinAutomotive.com","Noemail@DarwinAutomotive.com",,,,,,
"DRW","4010","4010","Russ Darrow Waukesha Kia","Russ Darrow Waukesha Kia - DARWIN","2141 E Moreland Blvd","Waukesha","WI","53186","262-547-1761",,"A","Noemail@DarwinAutomotive.com","Noemail@DarwinAutomotive.com","Noemail@DarwinAutomotive.com",,,,,,
"DRW","4020","4020","McDonald Volvo","McDonald Volvo - DARWIN","6040 S Broadway","Littleton","CO","80121","720-730-5136",,"A","Noemail@DarwinAutomotive.com","Noemail@DarwinAutomotive.com","Noemail@DarwinAutomotive.com",,,,,,
"DRW","4026","4026","Russ Darrow Kia of Wauwatosa","Russ Darrow Kia of Wauwatosa - DARWIN","1901 North Mayfair Road","Wauwatosa","WI","53226","414-867-3027",,"A","Noemail@DarwinAutomotive.com","Noemail@DarwinAutomotive.com","Noemail@DarwinAutomotive.com",,,,,,
"DRW","4052","4052","Atlanta West Kia","Atlanta West Kia - DARWIN","1301 Thornton Rd","Lithia Springs","GA","30122","678-715-5399",,"A","Noemail@DarwinAutomotive.com","Noemail@DarwinAutomotive.com","Noemail@DarwinAutomotive.com",,,,,,
"DRW","4054","4054","Atlanta West Chrysler Dodge Jeep RAM","Atlanta West Chrysler Dodge Jeep RAM - DARWIN","1251 Thornton Rd","Lithia Springs","GA","30122","770-942-1102",,"A","Noemail@DarwinAutomotive.com","Noemail@DarwinAutomotive.com","Noemail@DarwinAutomotive.com",,,,,,
"DRW","4059","4059","Hyundai of Cumming","Hyundai of Cumming - DARWIN","750 Peachtree Pkwy","Cumming","GA","30041","470-533-5100",,"A","Noemail@DarwinAutomotive.com","Noemail@DarwinAutomotive.com","Noemail@DarwinAutomotive.com",,,,,,
"DRW","4066","4066","Russ Darrow Kia of Madison","Russ Darrow Kia of Madison - DARWIN","6525 Odano Road","Madison","WI","53719","608-716-3192",,"A","Noemail@DarwinAutomotive.com","Noemail@DarwinAutomotive.com","Noemail@DarwinAutomotive.com",,,,,,
"DRW","4075","4075","Vic Bailey Volkswagen","Vic Bailey Volkswagen - DARWIN","2671 Reidville","Spartanburg","SC","29301","864-383-0363",,"A","Noemail@DarwinAutomotive.com","Noemail@DarwinAutomotive.com","Noemail@DarwinAutomotive.com",,,,,,
"DRW","4077","4077","Vic Bailey Honda","Vic Bailey Honda - DARWIN","500 East Daniel Morgan Ave","Spartanburg","SC","29302","864-585-5344",,"A","Noemail@DarwinAutomotive.com","Noemail@DarwinAutomotive.com","Noemail@DarwinAutomotive.com",,,,,,
"DRW","4132","4132","Mini Peabody","Mini Peabody - DARWIN","209 Andover Street","Peabody","MA","01960","(978) 536-0088",,"A","Noemail@DarwinAutomotive.com","Noemail@DarwinAutomotive.com","Noemail@DarwinAutomotive.com",,,,,,
"DRW","4134","4134","Jaguar Land Rover of Peabody","Jaguar Land Rover of Peabody - DARWIN","247 Newbury Street","Peabody","MA","01960","(978) 535-9200",,"A","Noemail@DarwinAutomotive.com","Noemail@DarwinAutomotive.com","Noemail@DarwinAutomotive.com",,,,,,
"DRW","4135","4135","BMW of Peabody","BMW of Peabody - DARWIN","221 Andover St","Peabody","MA","01960","(978) 573-5682",,"A","Noemail@DarwinAutomotive.com","Noemail@DarwinAutomotive.com","Noemail@DarwinAutomotive.com",,,,,,
"DRW","4136","4136","Mini Bedford","Mini Bedford - DARWIN","209 S River Road","Bedford","NH","03110","(603) 637-2900",,"A","Noemail@DarwinAutomotive.com","Noemail@DarwinAutomotive.com","Noemail@DarwinAutomotive.com",,,,,,
"DRW","4137","4137","Mid City Motor World","Mid City Motor World - DARWIN","4800 North Highway 101","Eureka","CA","95503","707-443-4871",,"A","Noemail@DarwinAutomotive.com","Noemail@DarwinAutomotive.com","Noemail@DarwinAutomotive.com",,,,,,
"DRW","4138","4138","Harper Motors","Harper Motors - DARWIN","4800 Highway 101 North","Eureka","CA","95503","707-443-7311",,"A","Noemail@DarwinAutomotive.com","Noemail@DarwinAutomotive.com","Noemail@DarwinAutomotive.com",,,,,,
"DRW","4144","4144","Marty Sussman Honda","Marty Sussman Honda - DARWIN","1543 Easton Road","Roslyn","PA","19001","215-887-1800",,"A","Noemail@DarwinAutomotive.com","Noemail@DarwinAutomotive.com","Noemail@DarwinAutomotive.com",,,,,,
"DRW","4145","4145","Sussman Hyundai","Sussman Hyundai - DARWIN","1645 Easton Road","Willow Grove","PA","19090","215-392-9020",,"A","Noemail@DarwinAutomotive.com","Noemail@DarwinAutomotive.com","Noemail@DarwinAutomotive.com",,,,,,
"DRW","4149","4149","Turner Chevrolet Harrisburg","Turner Chevrolet Harrisburg - DARWIN","1251 Paxton St","Harrisburg","PA","17104","(717) 234-4444",,"A","Noemail@DarwinAutomotive.com","Noemail@DarwinAutomotive.com","Noemail@DarwinAutomotive.com",,,,,,
"DRW","4163","4163","Sussman Acura","Sussman Acura - DARWIN","850 Old York Road","Jenkintown","PA","19046","215-572-1800",,"A","Noemail@DarwinAutomotive.com","Noemail@DarwinAutomotive.com","Noemail@DarwinAutomotive.com",,,,,,
"DRW","4164","4164","Sussman Kia","Sussman Kia - DARWIN","1940 Jenkintown Road","Jenkintown","PA","19046","215-884-9000",,"A","Noemail@DarwinAutomotive.com","Noemail@DarwinAutomotive.com","Noemail@DarwinAutomotive.com",,,,,,
"DRW","4165","4165","Mercedes Benz of Burlington","Mercedes Benz of Burlington - DARWIN","80 Cambridge St","Burlington","MA","01803","(781) 229-1600",,"A","Noemail@DarwinAutomotive.com","Noemail@DarwinAutomotive.com","Noemail@DarwinAutomotive.com",,,,,,
"DRW","4181","4181","Bayside Nissan of Annapolis","Bayside Nissan of Annapolis - DARWIN","2542 Riva Road","Annapolis","MD","21401","410-224-0707",,"A","Noemail@DarwinAutomotive.com","Noemail@DarwinAutomotive.com","Noemail@DarwinAutomotive.com",,,,,,
"DRW","4233","4233","Generation KIA","Generation KIA - DARWIN","4825 Sunrise Hwy","Bohemia","NY","11716","631 569 5700",,"A","Noemail@DarwinAutomotive.com","Noemail@DarwinAutomotive.com","Noemail@DarwinAutomotive.com",,,,,,
"DRW","4269","4269","Matthews Ford","Matthews Ford - DARWIN","175 East Main Street","Norwich","NY","13815","(607) 584-5354",,"A","Noemail@DarwinAutomotive.com","Noemail@DarwinAutomotive.com","Noemail@DarwinAutomotive.com",,,,,,
"DRW","4270","4270","Matthews Chevrolet","Matthews Chevrolet - DARWIN","3733 Vestal Road","Vestal","NY","13850","(607) 584-5354",,"A","Noemail@DarwinAutomotive.com","Noemail@DarwinAutomotive.com","Noemail@DarwinAutomotive.com",,,,,,
"DRW","4271","4271","Matthews Import Center","Matthews Import Center - DARWIN","3013 Vestal Parkway","Vestal","NY","13850","(607) 584-5354",,"A","Noemail@DarwinAutomotive.com","Noemail@DarwinAutomotive.com","Noemail@DarwinAutomotive.com",,,,,,
"DRW","4272","4272","Matthews GM Center","Matthews GM Center - DARWIN","3721 Vestal Road","Vestal","NY","13850","(607) 584-5354",,"A","Noemail@DarwinAutomotive.com","Noemail@DarwinAutomotive.com","Noemail@DarwinAutomotive.com",,,,,,
"DRW","4273","4273","Matthews on the Parkway","Matthews on the Parkway - DARWIN","2100 Vestal Parkway","Vestal","NY","13850","(607) 584-5354",,"A","Noemail@DarwinAutomotive.com","Noemail@DarwinAutomotive.com","Noemail@DarwinAutomotive.com",,,,,,
"DRW","4274","4274","Matthews of Scranton","Matthews of Scranton - DARWIN","3007 Scranton Carbondale Highway","Blakely","PA","18447","570-382-3297",,"A","Noemail@DarwinAutomotive.com","Noemail@DarwinAutomotive.com","Noemail@DarwinAutomotive.com",,,,,,
"DRW","4308","4308","Holman Go","Holman Go - DARWIN","3466 US Hwy 1","West Windsor","NJ","08540","(609) 524-9010",,"A","Noemail@DarwinAutomotive.com","Noemail@DarwinAutomotive.com","Noemail@DarwinAutomotive.com",,,,,,
"DRW","4325","4325","Martin Newark Dealership, Inc","Martin Newark Dealership, Inc - DARWIN","298 East Cleveland Avenue","Newark","DE","19711","302-731-4233",,"A","Noemail@DarwinAutomotive.com","Noemail@DarwinAutomotive.com","Noemail@DarwinAutomotive.com",,,,,,
"DRW","4334","4334","Kirby Kia of Ventura","Kirby Kia of Ventura - DARWIN","6424 Auto Center Dr","Ventura","CA","93003","(805) 644-2241",,"A","Noemail@DarwinAutomotive.com","Noemail@DarwinAutomotive.com","Noemail@DarwinAutomotive.com",,,,,,
"DRW","4362","4362","Lakeland Volkswagen","Lakeland Volkswagen - DARWIN","209 S. Lake Parker Ave","Lakeland","FL","33801","863-688-8112",,"A","Noemail@DarwinAutomotive.com","Noemail@DarwinAutomotive.com","Noemail@DarwinAutomotive.com",,,,,,
"DRW","4492","4492","Kia Delray","Kia Delray - DARWIN","2255 S Federal Hwy","Delray Beach","FL","33483","855-446-3285",,"A","Noemail@DarwinAutomotive.com","Noemail@DarwinAutomotive.com","Noemail@DarwinAutomotive.com",,,,,,
"DRW","4516","4516","Checkered Flag Jaguar Land Rover","Checkered Flag Jaguar Land Rover - DARWIN","2865 Virginia Beach Blvd","Virginia Beach","VA","23452","757.703.7088",,"A","Noemail@DarwinAutomotive.com","Noemail@DarwinAutomotive.com","Noemail@DarwinAutomotive.com",,,,,,
"DRW","4589","4589","Bill Kolb Jr. Subaru","Bill Kolb Jr. Subaru - DARWIN","252 Rt 303","Orangeburg","NY","10962","845-359-7777",,"A","Noemail@DarwinAutomotive.com","Noemail@DarwinAutomotive.com","Noemail@DarwinAutomotive.com",,,,,,
"DRW","4597","4597","Leesburg Volkswagen","Leesburg Volkswagen - DARWIN","9105 US Highway 441","Leesburg","FL","34748","352-360-7150",,"A","Noemail@DarwinAutomotive.com","Noemail@DarwinAutomotive.com","Noemail@DarwinAutomotive.com",,,,,,
"DRW","4605","4605","Findlay Audi Modesto","Findlay Audi Modesto - DARWIN","4151 McHenry Ave","Modesto","CA","95354","209 458 6006",,"A","Noemail@DarwinAutomotive.com","Noemail@DarwinAutomotive.com","Noemail@DarwinAutomotive.com",,,,,,
"DRW","4653","4653","Chrysler of Culpeper","Chrysler of Culpeper - DARWIN","11030 James Monroe Hwy","Culpeper","VA","22701","(540) 547-3981",,"A","Noemail@DarwinAutomotive.com","Noemail@DarwinAutomotive.com","Noemail@DarwinAutomotive.com",,,,,,
"DRW","4711","4711","Piazza Mercedes-Benz of Wilmington","Piazza Mercedes-Benz of Wilmington - DARWIN","3801 Lancaster Pike","Wilmington","DE","19805","302-995-5025",,"A","Noemail@DarwinAutomotive.com","Noemail@DarwinAutomotive.com","Noemail@DarwinAutomotive.com",,,,,,
"DRW","4713","4713","Piazza Honda of Pottstown","Piazza Honda of Pottstown - DARWIN","629 North Lewis Rd","Limerick","PA","19468","610-495-7076",,"A","Noemail@DarwinAutomotive.com","Noemail@DarwinAutomotive.com","Noemail@DarwinAutomotive.com",,,,,,
"DRW","4714","4714","Piazza Acura of West Chester","Piazza Acura of West Chester - DARWIN","1330 Wilmington Pike","West Chester","PA","19382","877-841-6095",,"A","Noemail@DarwinAutomotive.com","Noemail@DarwinAutomotive.com","Noemail@DarwinAutomotive.com",,,,,,
"DRW","4728","4728","Piazza Honda of Springfield","Piazza Honda of Springfield - DARWIN","780 Baltimore Pike","Springfield","PA","19064","888-829-6308",,"A","Noemail@DarwinAutomotive.com","Noemail@DarwinAutomotive.com","Noemail@DarwinAutomotive.com",,,,,,
"DRW","4729","4729","Ewald CJDR Oconomowoc","Ewald CJDR Oconomowoc - DARWIN","36833 E Wisconsin Ave","Oconomowoc","WI","53066","2625673400",,"A","Noemail@DarwinAutomotive.com","Noemail@DarwinAutomotive.com","Noemail@DarwinAutomotive.com",,,,,,
"DRW","4730","4730","Piazza Jaguar Land Rover Willow Grove","Piazza Jaguar Land Rover Willow Grove - DARWIN","900 South York Rd","Willow Grove","PA","19090","215-443-5900",,"A","Noemail@DarwinAutomotive.com","Noemail@DarwinAutomotive.com","Noemail@DarwinAutomotive.com",,,,,,
"DRW","4731","4731","Ewalds KIA","Ewalds KIA - DARWIN","36833 E Wisconsin Ave","Oconomowoc","WI","53066","2625696500",,"A","Noemail@DarwinAutomotive.com","Noemail@DarwinAutomotive.com","Noemail@DarwinAutomotive.com",,,,,,
"DRW","4732","4732","Ewald CJDR Franklin","Ewald CJDR Franklin - DARWIN","6319 S 108th St","Franklin","WI","53132","4144272000",,"A","Noemail@DarwinAutomotive.com","Noemail@DarwinAutomotive.com","Noemail@DarwinAutomotive.com",,,,,,
"DRW","4734","4734","Ewald Chevrolet Buick","Ewald Chevrolet Buick - DARWIN","36833 E Wisconsin Ave","Oconomowoc","WI","53066","252-567-5555",,"A","Noemail@DarwinAutomotive.com","Noemail@DarwinAutomotive.com","Noemail@DarwinAutomotive.com",,,,,,
"DRW","4746","4746","Volkswagen of Salem County","Volkswagen of Salem County - DARWIN","815 Route 40","Monroeville","NJ","08343","(856) 358-8103",,"A","Noemail@DarwinAutomotive.com","Noemail@DarwinAutomotive.com","Noemail@DarwinAutomotive.com",,,,,,
"DRW","4771","4771","Sport Subaru South Orlando","Sport Subaru South Orlando - DARWIN","9951 Orange Blossom Trail","Orlando","FL","32837","888-709-0655",,"A","Noemail@DarwinAutomotive.com","Noemail@DarwinAutomotive.com","Noemail@DarwinAutomotive.com",,,,,,
"DRW","4780","4780","Audi Norwell","Audi Norwell - DARWIN","59 Pond Street","Norwell","MA","02061","855.805.4846",,"A","Noemail@DarwinAutomotive.com","Noemail@DarwinAutomotive.com","Noemail@DarwinAutomotive.com",,,,,,
"DRW","4781","4781","Boston Volvo Cars","Boston Volvo Cars - DARWIN","61 N Beacon St #101","Allston","MA","02134","855.910.6428",,"A","Noemail@DarwinAutomotive.com","Noemail@DarwinAutomotive.com","Noemail@DarwinAutomotive.com",,,,,,
"DRW","4785","4785","Volvo Cars Danvers","Volvo Cars Danvers - DARWIN","24B Commonwealth St","Danvers","MA","01923","855.488.6018",,"A","Noemail@DarwinAutomotive.com","Noemail@DarwinAutomotive.com","Noemail@DarwinAutomotive.com",,,,,,
"DRW","4803","4803","Wayne Subaru","Wayne Subaru - DARWIN","600 Route 23 North","Pompton Plains","NJ","07444","888-840-3025",,"A","Noemail@DarwinAutomotive.com","Noemail@DarwinAutomotive.com","Noemail@DarwinAutomotive.com",,,,,,
"DRW","4813","4813","Mini of Baltimore County","Mini of Baltimore County - DARWIN","720 Kenilworth Drive","Towson","MD","21204","(833) 791-8968",,"A","Noemail@DarwinAutomotive.com","Noemail@DarwinAutomotive.com","Noemail@DarwinAutomotive.com",,,,,,
"DRW","4814","4814","Jaguar Land Rover of Hunt Valley","Jaguar Land Rover of Hunt Valley - DARWIN","10260 York Rd.","Cockeysville","MD","21030","(443) 632-1199",,"A","Noemail@DarwinAutomotive.com","Noemail@DarwinAutomotive.com","Noemail@DarwinAutomotive.com",,,,,,
"DRW","4815","4815","Audi of Owings Mills","Audi of Owings Mills - DARWIN","9804 Reistertown Rd","Owings Mills","MD","21117","(443) 632-1199",,"A","Noemail@DarwinAutomotive.com","Noemail@DarwinAutomotive.com","Noemail@DarwinAutomotive.com",,,,,,
"DRW","4816","4816","Porsche of Towson","Porsche of Towson - DARWIN","700 Kenilworth Drive","Towson","MD","21204","(443) 914-7141",,"A","Noemail@DarwinAutomotive.com","Noemail@DarwinAutomotive.com","Noemail@DarwinAutomotive.com",,,,,,
"DRW","4819","4819","BMW of Rockville","BMW of Rockville - DARWIN","1300 Rockville Pike","Rockville","MD","20852","(301) 984-8989",,"A","Noemail@DarwinAutomotive.com","Noemail@DarwinAutomotive.com","Noemail@DarwinAutomotive.com",,,,,,
"DRW","4820","4820","Acura Hunt Valley","Acura Hunt Valley - DARWIN","10400 York Road","Cockeysville","MD","21030","(410) 666-5300",,"A","Noemail@DarwinAutomotive.com","Noemail@DarwinAutomotive.com","Noemail@DarwinAutomotive.com",,,,,,
"DRW","4821","4821","BMW of Bel Air","BMW of Bel Air - DARWIN","716 Belair Road","Bel Air","MD","21014","(443) 345-2712",,"A","Noemail@DarwinAutomotive.com","Noemail@DarwinAutomotive.com","Noemail@DarwinAutomotive.com",,,,,,
"DRW","4822","4822","BMW of Towson","BMW of Towson - DARWIN","700 Kenilworth Drive","Towson","MD","21204","(410) 296-7900",,"A","Noemail@DarwinAutomotive.com","Noemail@DarwinAutomotive.com","Noemail@DarwinAutomotive.com",,,,,,
"DRW","4836","4836","Subaru of Winchester","Subaru of Winchester - DARWIN","3019 Valley avenue ","Winchester","VA","22601","540-545-8000",,"A","Noemail@DarwinAutomotive.com","Noemail@DarwinAutomotive.com","Noemail@DarwinAutomotive.com",,,,,,
"DRW","4872","4872","Jim Ellis Toyota of McDonough","Jim Ellis Toyota of McDonough - DARWIN","144 Highway 81 West","McDonough","GA","30253","770-288-3755",,"A","Noemail@DarwinAutomotive.com","Noemail@DarwinAutomotive.com","Noemail@DarwinAutomotive.com",,,,,,
"DRW","4901","4901","Rafferty Subaru","Rafferty Subaru - DARWIN","4700 Westchester Pike ","Newton Square","PA","19073","(877) 449-0554",,"A","Noemail@DarwinAutomotive.com","Noemail@DarwinAutomotive.com","Noemail@DarwinAutomotive.com",,,,,,
"DRW","4984","4984","First Team Subaru (Norfolk)","First Team Subaru (Norfolk) - DARWIN","6611 E Virginia Beach Blvd ","Norfolk ","VA","23502","757-461-8855",,"A","Noemail@DarwinAutomotive.com","Noemail@DarwinAutomotive.com","Noemail@DarwinAutomotive.com",,,,,,
"DRW","5001","5001","Hyundai of North Charleston","Hyundai of North Charleston - DARWIN","8485 Rivers Ave","North Charleston","SC","29406","843.375.8040",,"A","Noemail@DarwinAutomotive.com","Noemail@DarwinAutomotive.com","Noemail@DarwinAutomotive.com",,,,,,
"DRW","5002","5002","Hyundai of Kennesaw","Hyundai of Kennesaw - DARWIN","2878 Barrett Lakes Blvd","Kennesaw","GA","30144","678-631-3575",,"A","Noemail@DarwinAutomotive.com","Noemail@DarwinAutomotive.com","Noemail@DarwinAutomotive.com",,,,,,
"DRW","5041","5041","Audi Atlanta","Audi Atlanta - DARWIN","5805 Peachtree Blvd","Atlanta","GA","30341","877-465-2802",,"A","Noemail@DarwinAutomotive.com","Noemail@DarwinAutomotive.com","Noemail@DarwinAutomotive.com",,,,,,
"DRW","5068","5068","Mercedes Benz of Easton","Mercedes Benz of Easton - DARWIN","4300 Morse Crossing","Columbus","OH","43230","888-530-5742",,"A","Noemail@DarwinAutomotive.com","Noemail@DarwinAutomotive.com","Noemail@DarwinAutomotive.com",,,,,,
"DRW","5113","5113","Price Acura","Price Acura - DARWIN","4585 S. Dupont Highway","Dover","DE","19901","302-734-5000",,"A","Noemail@DarwinAutomotive.com","Noemail@DarwinAutomotive.com","Noemail@DarwinAutomotive.com",,,,,,
"DRW","5114","5114","Price Honda","Price Honda - DARWIN","4567 S. Dupont Highway","Dover","DE","19901","302-213-6839",,"A","Noemail@DarwinAutomotive.com","Noemail@DarwinAutomotive.com","Noemail@DarwinAutomotive.com",,,,,,
"DRW","5138","5138","University Volvo","University Volvo - DARWIN","7716 N Tryon St","Charlotte","NC","28262","704-547-1095",,"A","Noemail@DarwinAutomotive.com","Noemail@DarwinAutomotive.com","Noemail@DarwinAutomotive.com",,,,,,
"DRW","5158","5158","Matthews Nissan","Matthews Nissan - DARWIN","3101 Vestal Pkwy E","Vestal","NY","13850","(607) 584-5354",,"A","Noemail@DarwinAutomotive.com","Noemail@DarwinAutomotive.com","Noemail@DarwinAutomotive.com",,,,,,
"DRW","5160","5160","Motorcars Acura Volvo","Motorcars Acura Volvo - DARWIN","18123 Rockside Rd","Bedford","OH","44146","833-216-7816",,"A","Noemail@DarwinAutomotive.com","Noemail@DarwinAutomotive.com","Noemail@DarwinAutomotive.com",,,,,,
"DRW","5192","5192","Three Rivers Volkswagen","Three Rivers Volkswagen - DARWIN","3694 Washington Rd","McMurray","PA","15317","724-941-6100",,"A","Noemail@DarwinAutomotive.com","Noemail@DarwinAutomotive.com","Noemail@DarwinAutomotive.com",,,,,,
"DRW","5258","5258","Porsche Atlanta Perimeter","Porsche Atlanta Perimeter - DARWIN","4006 Carver Dr","Atlanta","GA","30360","1-888-893-6299",,"A","Noemail@DarwinAutomotive.com","Noemail@DarwinAutomotive.com","Noemail@DarwinAutomotive.com",,,,,,
"DRW","5277","5277","Porsche Nashua","Porsche Nashua - DARWIN","170 Main Dunstable Road","Nashua","NH","03060","(603) 595-1707",,"A","Noemail@DarwinAutomotive.com","Noemail@DarwinAutomotive.com","Noemail@DarwinAutomotive.com",,,,,,
"DRW","5320","5320","Olathe Kia","Olathe Kia - DARWIN","130 N Fir St","Olathe","KS","66061","913-390-6800",,"A","Noemail@DarwinAutomotive.com","Noemail@DarwinAutomotive.com","Noemail@DarwinAutomotive.com",,,,,,
"DRW","5321","5321","Olathe Subaru","Olathe Subaru - DARWIN","505 S Fir St","Olathe","KS","66061","913-780-0400",,"A","Noemail@DarwinAutomotive.com","Noemail@DarwinAutomotive.com","Noemail@DarwinAutomotive.com",,,,,,
"DRW","5349","5349","495 Chrysler Dodge Jeep Ram","495 Chrysler Dodge Jeep Ram - DARWIN","732 Rogers Street","Lowell","MA","01852","978-454-1400",,"A","Noemail@DarwinAutomotive.com","Noemail@DarwinAutomotive.com","Noemail@DarwinAutomotive.com",,,,,,
"DRW","5353","5353","Reeves Imports","Reeves Imports - DARWIN","11337 N Florida Ave","Tampa","FL","33612","813-499-2247",,"A","Noemail@DarwinAutomotive.com","Noemail@DarwinAutomotive.com","Noemail@DarwinAutomotive.com",,,,,,
"DRW","5365","5365","Toms River Volkswagen","Toms River Volkswagen - DARWIN","256 Route 37 East","Toms River","NJ","08753","732-575-1800",,"A","Noemail@DarwinAutomotive.com","Noemail@DarwinAutomotive.com","Noemail@DarwinAutomotive.com",,,,,,
"DRW","5394","5394","Street Volkswagen","Street Volkswagen - DARWIN","8707 Pilgrim Drive","Amarillo","TX","79119","806-350-8999",,"A","Noemail@DarwinAutomotive.com","Noemail@DarwinAutomotive.com","Noemail@DarwinAutomotive.com",,,,,,
"DRW","5396","5396","Boston Volkswagen","Boston Volkswagen - DARWIN","43 North Beacon Street","Watertown","MA","02472","(617) 783-1300",,"A","Noemail@DarwinAutomotive.com","Noemail@DarwinAutomotive.com","Noemail@DarwinAutomotive.com",,,,,,
"DRW","5429","5429","Furrow Mercedes-Benz of Knoxville","Furrow Mercedes-Benz of Knoxville - DARWIN","10131 Parkside Drive","Knoxville","TN","37922","(865) 777-2222",,"A","Noemail@DarwinAutomotive.com","Noemail@DarwinAutomotive.com","Noemail@DarwinAutomotive.com",,,,,,
"DRW","5476","5476","Fischer Honda","Fischer Honda - DARWIN","15 E Michigan Avenue","Ypsilanti","MI","48198","734-483-0323",,"A","Noemail@DarwinAutomotive.com","Noemail@DarwinAutomotive.com","Noemail@DarwinAutomotive.com",,,,,,
"DRW","5503","5503","Auburn Volkswagen","Auburn Volkswagen - DARWIN","3109 Auburn Way North","Auburn","WA","98002","253-218-1108",,"A","Noemail@DarwinAutomotive.com","Noemail@DarwinAutomotive.com","Noemail@DarwinAutomotive.com",,,,,,
"DRW","5514","5514","BMW of Reading","BMW of Reading - DARWIN","1015 Lancaster Avenue","Reading","PA","19607","610-777-1500",,"A","Noemail@DarwinAutomotive.com","Noemail@DarwinAutomotive.com","Noemail@DarwinAutomotive.com",,,,,,
"DRW","5585","5585","Eskridge Honda","Eskridge Honda - DARWIN","1030 SW 74th Street ","Oklahoma City ","OK","73139","(405) 631-4444",,"A","Noemail@DarwinAutomotive.com","Noemail@DarwinAutomotive.com","Noemail@DarwinAutomotive.com",,,,,,
"DRW","5658","5658","Kia of Augusta","Kia of Augusta - DARWIN","1770 Gordon Highway","Augusta","GA","30904","706-312-9200",,"A","Noemail@DarwinAutomotive.com","Noemail@DarwinAutomotive.com","Noemail@DarwinAutomotive.com",,,,,,
"DRW","5678","5678","Marks Auto Mart","Marks Auto Mart - DARWIN","2100 5th Avenue S.","Fort Dodge","IA","50501","515-573-5931",,"A","Noemail@DarwinAutomotive.com","Noemail@DarwinAutomotive.com","Noemail@DarwinAutomotive.com",,,,,,
"DRW","5691","5691","Audi West Chester","Audi West Chester - DARWIN","1421 Wilmington Pike","West Chester","PA","19382","(610) 455-2000",,"A","Noemail@DarwinAutomotive.com","Noemail@DarwinAutomotive.com","Noemail@DarwinAutomotive.com",,,,,,
"DRW","5705","5705","Mastria Kia","Mastria Kia - DARWIN","1555 New State Highway","Raynham","MA","02767","877-365-6821",,"A","Noemail@DarwinAutomotive.com","Noemail@DarwinAutomotive.com","Noemail@DarwinAutomotive.com",,,,,,
"DRW","5706","5706","Mastria Buick GMC","Mastria Buick GMC - DARWIN","1525 New State Highway","Raynham","MA","02767","(800) 821-1998 ",,"A","Noemail@DarwinAutomotive.com","Noemail@DarwinAutomotive.com","Noemail@DarwinAutomotive.com",,,,,,
"DRW","5707","5707","Mastria Mazda","Mastria Mazda - DARWIN","1545 New State Highway","Raynham","MA","02767","508-802-6138",,"A","Noemail@DarwinAutomotive.com","Noemail@DarwinAutomotive.com","Noemail@DarwinAutomotive.com",,,,,,
"DRW","5708","5708","Mastria Nissan","Mastria Nissan - DARWIN","1305 New State Highway","Raynham","MA","02767","888-848-9040",,"A","Noemail@DarwinAutomotive.com","Noemail@DarwinAutomotive.com","Noemail@DarwinAutomotive.com",,,,,,
"DRW","5709","5709","Mastria Subaru","Mastria Subaru - DARWIN","1255 New State Highway","Raynham","MA","02767","(888) 820-9015",,"A","Noemail@DarwinAutomotive.com","Noemail@DarwinAutomotive.com","Noemail@DarwinAutomotive.com",,,,,,
"DRW","5710","5710","Mastria Volkswagen","Mastria Volkswagen - DARWIN","1619 New State Highway","Raynham","MA","02767","(888) 336-1172",,"A","Noemail@DarwinAutomotive.com","Noemail@DarwinAutomotive.com","Noemail@DarwinAutomotive.com",,,,,,
"DRW","5723","5723","Gengras Volkswagen of Plainville","Gengras Volkswagen of Plainville - DARWIN","245 New Britain Ave","Plainville","CT","06062","(860) 410-2000",,"A","Noemail@DarwinAutomotive.com","Noemail@DarwinAutomotive.com","Noemail@DarwinAutomotive.com",,,,,,
"DRW","5770","5770","Mike Patton Ford Lincoln","Mike Patton Ford Lincoln - DARWIN","1402 Lafayette Pkwy","La Grange","GA","30241","706-668-2108",,"A","Noemail@DarwinAutomotive.com","Noemail@DarwinAutomotive.com","Noemail@DarwinAutomotive.com",,,,,,
"DRW","5772","5772","Mike Patton Honda","Mike Patton Honda - DARWIN","1406 Lafayette Pkwy","La Grange","GA","30241","706-882-0600",,"A","Noemail@DarwinAutomotive.com","Noemail@DarwinAutomotive.com","Noemail@DarwinAutomotive.com",,,,,,
"DRW","5800","5800","RC Hill Mitsubishi Ocala","RC Hill Mitsubishi Ocala - DARWIN","3550 S. Pine Avenue ","Ocala ","FL","34471","352 329 8892",,"A","Noemail@DarwinAutomotive.com","Noemail@DarwinAutomotive.com","Noemail@DarwinAutomotive.com",,,,,,
"DRW","5804","5804","Mike Patton Chrysler Dodge Jeep RAM","Mike Patton Chrysler Dodge Jeep RAM - DARWIN","1408 Lafayette Parkway","LaGrange","GA","30241","706-882-0600",,"A","Noemail@DarwinAutomotive.com","Noemail@DarwinAutomotive.com","Noemail@DarwinAutomotive.com",,,,,,
"DRW","5840","5840","Jim Ellis Mazda of Marietta","Jim Ellis Mazda of Marietta - DARWIN","1715 Cobb Parkway SE","Marietta","GA","30060","770-590-4450",,"A","Noemail@DarwinAutomotive.com","Noemail@DarwinAutomotive.com","Noemail@DarwinAutomotive.com",,,,,,
"DRW","5849","5849","Volkswagen Alhambra","Volkswagen Alhambra - DARWIN","1811 W. Main Street","Alhambra","CA","91801","626-407-0500",,"A","Noemail@DarwinAutomotive.com","Noemail@DarwinAutomotive.com","Noemail@DarwinAutomotive.com",,,,,,
"DRW","5893","5893","Annapolis Subaru","Annapolis Subaru - DARWIN","149 Old Solomons Island Rd","Annapolis","MD","21401","(443) 837-1400",,"A","Noemail@DarwinAutomotive.com","Noemail@DarwinAutomotive.com","Noemail@DarwinAutomotive.com",,,,,,
"DRW","5903","5903","Audi Beaverton","Audi Beaverton - DARWIN","13745 SW  Tualatin Valley Hwy","Beaverton","OR","97005","5037186100",,"A","Noemail@DarwinAutomotive.com","Noemail@DarwinAutomotive.com","Noemail@DarwinAutomotive.com",,,,,,
"DRW","5923","5923","Hudson Subaru","Hudson Subaru - DARWIN","943 Communipaw Ave","Jersey City","NJ","07304","888-473-3705",,"A","Noemail@DarwinAutomotive.com","Noemail@DarwinAutomotive.com","Noemail@DarwinAutomotive.com",,,,,,
"DRW","6009","6009","Porsche Beaverton","Porsche Beaverton - DARWIN","13875 SW Tualatin Valley Highway","Beaverton","OR","97005","(503) 718-6060",,"A","Noemail@DarwinAutomotive.com","Noemail@DarwinAutomotive.com","Noemail@DarwinAutomotive.com",,,,,,
"DRW","6060","6060","Goldstein Chrysler Dodge Jeep RAM","Goldstein Chrysler Dodge Jeep RAM - DARWIN","968 New Loudon Rd","Latham","NY","12110","518-690-2332",,"A","Noemail@DarwinAutomotive.com","Noemail@DarwinAutomotive.com","Noemail@DarwinAutomotive.com",,,,,,
"DRW","6061","6061","Goldstein Subaru","Goldstein Subaru - DARWIN","1754 Central Ave","Albany","NY","12205","518-690-2244",,"A","Noemail@DarwinAutomotive.com","Noemail@DarwinAutomotive.com","Noemail@DarwinAutomotive.com",,,,,,
"DRW","6063","6063","Patriot Nissan of Salem","Patriot Nissan of Salem - DARWIN","93 South Broadway","Salem","NH","03079","603-894-4300",,"A","Noemail@DarwinAutomotive.com","Noemail@DarwinAutomotive.com","Noemail@DarwinAutomotive.com",,,,,,
"DRW","6064","6064","Honda of Tenafly","Honda of Tenafly - DARWIN","28 County Rd","Tenefly","NJ","07670","866-680-9726",,"A","Noemail@DarwinAutomotive.com","Noemail@DarwinAutomotive.com","Noemail@DarwinAutomotive.com",,,,,,
"DRW","6076","6076","Dan Vaden Chevrolet Cadillac","Dan Vaden Chevrolet Cadillac - DARWIN","9393 Abercorn St","Savannah","GA","31406","912-925-9393",,"A","Noemail@DarwinAutomotive.com","Noemail@DarwinAutomotive.com","Noemail@DarwinAutomotive.com",,,,,,
"DRW","6079","6079","Vaden Chevrolet Pooler","Vaden Chevrolet Pooler - DARWIN","300 Outlet Parkway","Pooler","GA","31322","912-450-7399",,"A","Noemail@DarwinAutomotive.com","Noemail@DarwinAutomotive.com","Noemail@DarwinAutomotive.com",,,,,,
"DRW","6080","6080","Vaden of Beaufort","Vaden of Beaufort - DARWIN","103 Robert Small Pkwy","Beaufort","SC","29906","843-525-4130",,"A","Noemail@DarwinAutomotive.com","Noemail@DarwinAutomotive.com","Noemail@DarwinAutomotive.com",,,,,,
"DRW","6081","6081","Dan Vaden Chevrolet Cadillac Brunswick","Dan Vaden Chevrolet Cadillac Brunswick - DARWIN","121 Altama Connector","Brunswick","GA","31525","(912) 265-3540",,"A","Noemail@DarwinAutomotive.com","Noemail@DarwinAutomotive.com","Noemail@DarwinAutomotive.com",,,,,,
"DRW","6099","6099","Duncan Hyundai","Duncan Hyundai - DARWIN","2050 Roanoke Street","Christiansburg","VA","24073","540 381 3200",,"A","Noemail@DarwinAutomotive.com","Noemail@DarwinAutomotive.com","Noemail@DarwinAutomotive.com",,,,,,
"DRW","6101","6101","Duncans Hokie Honda","Duncans Hokie Honda - DARWIN","2040 Roanoke Street","Christianburg","VA","24073","(540) 381-3200",,"A","Noemail@DarwinAutomotive.com","Noemail@DarwinAutomotive.com","Noemail@DarwinAutomotive.com",,,,,,
"DRW","6113","6113","Pilson Auto Center of Charleston","Pilson Auto Center of Charleston - DARWIN","1506 18th Street","Charleston","IL","61920","217-238-7726",,"A","Noemail@DarwinAutomotive.com","Noemail@DarwinAutomotive.com","Noemail@DarwinAutomotive.com",,,,,,
"DRW","6114","6114","Pilson Auto Center of Mattoon","Pilson Auto Center of Mattoon - DARWIN","2000 Lakeland Blvd","Mattoon","IL","61938","217-718-6891",,"A","Noemail@DarwinAutomotive.com","Noemail@DarwinAutomotive.com","Noemail@DarwinAutomotive.com",,,,,,
"DRW","6124","6124","Duncan Acura Audi","Duncan Acura Audi - DARWIN","2032 Peters Creek Road","","VA","24017","540 562 0088",,"A","Noemail@DarwinAutomotive.com","Noemail@DarwinAutomotive.com","Noemail@DarwinAutomotive.com",,,,,,
"DRW","6155","6155","RC Hill Mitsubishi Deland","RC Hill Mitsubishi Deland - DARWIN","1960 S. Woodland Blvd. ","Deland","FL","32720","386 223 0779",,"A","Noemail@DarwinAutomotive.com","Noemail@DarwinAutomotive.com","Noemail@DarwinAutomotive.com",,,,,,
"DRW","6206","6206","Grubbs Infiniti","Grubbs Infiniti - DARWIN","1500 E State Highway 114","Grapevine","TX","76051","817-318-1200",,"A","Noemail@DarwinAutomotive.com","Noemail@DarwinAutomotive.com","Noemail@DarwinAutomotive.com",,,,,,
"DRW","6207","6207","Grubbs Infiniti of San Antonio","Grubbs Infiniti of San Antonio - DARWIN","12150 W I-10","San Antonio","TX","78230","210-640-1500",,"A","Noemail@DarwinAutomotive.com","Noemail@DarwinAutomotive.com","Noemail@DarwinAutomotive.com",,,,,,
"DRW","6208","6208","Grubbs Volvo","Grubbs Volvo - DARWIN","1500 E State Highway 114","Grapevine","TX","76051","817-203-8600",,"A","Noemail@DarwinAutomotive.com","Noemail@DarwinAutomotive.com","Noemail@DarwinAutomotive.com",,,,,,
"DRW","6209","6209","Wagner Subaru","Wagner Subaru - DARWIN","5470 Intrastate Dr","Fairborn","OH","45324","937-878-2171",,"A","Noemail@DarwinAutomotive.com","Noemail@DarwinAutomotive.com","Noemail@DarwinAutomotive.com",,,,,,
"DRW","6237","6237","Classic Mazda West","Classic Mazda West - DARWIN","13930 Brookpark Road","Brook Park","OH","44135","216-259-0900",,"A","Noemail@DarwinAutomotive.com","Noemail@DarwinAutomotive.com","Noemail@DarwinAutomotive.com",,,,,,
"DRW","6243","6243","Wright Hyundai","Wright Hyundai - DARWIN","10677 Perry Hwy","Wexford","PA","15090","7249354646",,"A","Noemail@DarwinAutomotive.com","Noemail@DarwinAutomotive.com","Noemail@DarwinAutomotive.com",,,,,,
"DRW","6271","6271","Royal Moore Subaru","Royal Moore Subaru - DARWIN","1326 SE Enterprise Circle","Hillsboro","OR","97123","503-640-5660",,"A","Noemail@DarwinAutomotive.com","Noemail@DarwinAutomotive.com","Noemail@DarwinAutomotive.com",,,,,,
"DRW","6272","6272","Royal Moore Buick GMC Mazda","Royal Moore Buick GMC Mazda - DARWIN","1380 SE River Road","Hillsboro","OR","97123","(503) 648-1153",,"A","Noemail@DarwinAutomotive.com","Noemail@DarwinAutomotive.com","Noemail@DarwinAutomotive.com",,,,,,
"DRW","6273","6273","Royal Moore Toyota","Royal Moore Toyota - DARWIN","1415 SE River Rd","Hillsboro","OR","97123","(971) 205-3042",,"A","Noemail@DarwinAutomotive.com","Noemail@DarwinAutomotive.com","Noemail@DarwinAutomotive.com",,,,,,
"DRW","6284","6284","Dan Tobin Buick GMC","Dan Tobin Buick GMC - DARWIN","2539 Billingsley Rd","Columbus","OH","43235","(614) 317-4350",,"A","Noemail@DarwinAutomotive.com","Noemail@DarwinAutomotive.com","Noemail@DarwinAutomotive.com",,,,,,
"DRW","6285","6285","Dan Tobin Chevrolet","Dan Tobin Chevrolet - DARWIN","2539 Billingsley Rd","Columbus","OH","43235","(614) 889-6300",,"A","Noemail@DarwinAutomotive.com","Noemail@DarwinAutomotive.com","Noemail@DarwinAutomotive.com",,,,,,
"DRW","6301","6301","Audi Charlotte","Audi Charlotte - DARWIN","9300 E. Independence Blvd","Matthews","NC","28105","704-535-8800",,"A","Noemail@DarwinAutomotive.com","Noemail@DarwinAutomotive.com","Noemail@DarwinAutomotive.com",,,,,,
"DRW","6406","6406","Audi Clearwater","Audi Clearwater - DARWIN","18940 US Hwy 19","Clearwater","FL","33764","727 324 1800",,"A","Noemail@DarwinAutomotive.com","Noemail@DarwinAutomotive.com","Noemail@DarwinAutomotive.com",,,,,,
"DRW","6528","6528","Northpointe Auto","Northpointe Auto - DARWIN","3485 PA-257","Seneca","PA","16346","814-676-7000",,"A","Noemail@DarwinAutomotive.com","Noemail@DarwinAutomotive.com","Noemail@DarwinAutomotive.com",,,,,,
"DRW","6557","6557","CARite of Windsor Locks","CARite of Windsor Locks - DARWIN","501 North Street #584","Windsor Locks","CT","06096","855-424-8686",,"A","Noemail@DarwinAutomotive.com","Noemail@DarwinAutomotive.com","Noemail@DarwinAutomotive.com",,,,,,
"DRW","6571","6571","Reeves Import Motorcars","Reeves Import Motorcars - DARWIN","105 E. Fowler Avenue","Tampa","FL","33612","813-933-2811",,"A","Noemail@DarwinAutomotive.com","Noemail@DarwinAutomotive.com","Noemail@DarwinAutomotive.com",,,,,,
"DRW","6589","6589","Wright Honda","Wright Honda - DARWIN","3 Superior Way","Uniontown","PA","15401","(724) 438-4868",,"A","Noemail@DarwinAutomotive.com","Noemail@DarwinAutomotive.com","Noemail@DarwinAutomotive.com",,,,,,
"DRW","6605","6605","Douglass Nissan","Douglass Nissan - DARWIN","1001 Earl Rudder Fwy","College Station","TX","77845","979-764-7726",,"A","Noemail@DarwinAutomotive.com","Noemail@DarwinAutomotive.com","Noemail@DarwinAutomotive.com",,,,,,
"DRW","6617","6617","Earl Duff Subaru","Earl Duff Subaru - DARWIN","1028 S Roane St","Harriman","TN","37748","866-981-4211",,"A","Noemail@DarwinAutomotive.com","Noemail@DarwinAutomotive.com","Noemail@DarwinAutomotive.com",,,,,,
"DRW","6622","6622","Douglass Volkswagen Mazda","Douglass Volkswagen Mazda - DARWIN","3100 Briarcrest Dr","Bryan","TX","77802","979-776-7600",,"A","Noemail@DarwinAutomotive.com","Noemail@DarwinAutomotive.com","Noemail@DarwinAutomotive.com",,,,,,
"DRW","6624","6624","Audi Cape Fear","Audi Cape Fear - DARWIN","255 Old Eastwood Rd","","NC","28403","(888) 748-1157",,"A","Noemail@DarwinAutomotive.com","Noemail@DarwinAutomotive.com","Noemail@DarwinAutomotive.com",,,,,,
"DRW","6626","6626","Cardinale Audi Porsche VW","Cardinale Audi Porsche VW - DARWIN","6000 Wible Rd","Bakersfield","CA","93313","833-828-9816",,"A","Noemail@DarwinAutomotive.com","Noemail@DarwinAutomotive.com","Noemail@DarwinAutomotive.com",,,,,,
"DRW","6630","6630","Cardinaleway Acura","Cardinaleway Acura - DARWIN","7000 W. Sahara Ave ","Las Vegas","NV","89117","702-765-4192",,"A","Noemail@DarwinAutomotive.com","Noemail@DarwinAutomotive.com","Noemail@DarwinAutomotive.com",,,,,,
"DRW","6632","6632","International Kia of Orland","International Kia of Orland - DARWIN","8821 W 159Th St","Orland Hills","IL","60487","708-468-0000",,"A","Noemail@DarwinAutomotive.com","Noemail@DarwinAutomotive.com","Noemail@DarwinAutomotive.com",,,,,,
"DRW","6633","6633","Holman Motor Cars St. Louis","Holman Motor Cars St. Louis - DARWIN","1 Arnage Blvd","Chesterfield","MO","63005","636-489-3788",,"A","Noemail@DarwinAutomotive.com","Noemail@DarwinAutomotive.com","Noemail@DarwinAutomotive.com",,,,,,
"DRW","6641","6641","Valley Subaru of Longmont","Valley Subaru of Longmont - DARWIN","1800 Industrial Circle","Longmont","CO","80501","720-465-8112",,"A","Noemail@DarwinAutomotive.com","Noemail@DarwinAutomotive.com","Noemail@DarwinAutomotive.com",,,,,,
"DRW","6648","6648","Cardinale Nissan","Cardinale Nissan - DARWIN","1661 Del Monte Blvd","Seaside","CA","93955","831-393-0600",,"A","Noemail@DarwinAutomotive.com","Noemail@DarwinAutomotive.com","Noemail@DarwinAutomotive.com",,,,,,
"DRW","6649","6649","Cardinaleway Hyundai","Cardinaleway Hyundai - DARWIN","2525 Wardlow Road ","Corona","CA","92882","(951) 370-1089",,"A","Noemail@DarwinAutomotive.com","Noemail@DarwinAutomotive.com","Noemail@DarwinAutomotive.com",,,,,,
"DRW","6650","6650","J Bertolet VW** DO NOT USE","J Bertolet VW** DO NOT USE - DARWIN","555 Route 61","Orwigsburg","PA","17961","570-366-0501",,"A","Noemail@DarwinAutomotive.com","Noemail@DarwinAutomotive.com","Noemail@DarwinAutomotive.com",,,,,,
"DRW","6651","6651","Cardinale VW Salinas","Cardinale VW Salinas - DARWIN","500 Auto Center Circle ","Salinas","CA","93907","1-888-314-6063",,"A","Noemail@DarwinAutomotive.com","Noemail@DarwinAutomotive.com","Noemail@DarwinAutomotive.com",,,,,,
"DRW","6652","6652","Cardinaleway VW","Cardinaleway VW - DARWIN","2603 Wardlow Road ","Corona","CA","92882","(951) 370-2152",,"A","Noemail@DarwinAutomotive.com","Noemail@DarwinAutomotive.com","Noemail@DarwinAutomotive.com",,,,,,
"DRW","6653","6653","Audi Monterey Peninsula","Audi Monterey Peninsula - DARWIN","3 Heistzinger Plaza","Seaside","CA","93955","831-920-3705",,"A","Noemail@DarwinAutomotive.com","Noemail@DarwinAutomotive.com","Noemail@DarwinAutomotive.com",,,,,,
"DRW","6654","6654","BMW San Luis Obispo","BMW San Luis Obispo - DARWIN","1251 Calle Joaquin San Luis","Obispo","CA","93405","805-980-7320				",,"A","Noemail@DarwinAutomotive.com","Noemail@DarwinAutomotive.com","Noemail@DarwinAutomotive.com",,,,,,
"DRW","6655","6655","Coast Nissan","Coast Nissan - DARWIN","12150 Los Osos Valley ","Obispo","CA","93405","714-745-3694",,"A","Noemail@DarwinAutomotive.com","Noemail@DarwinAutomotive.com","Noemail@DarwinAutomotive.com",,,,,,
"DRW","6656","6656","Turnersville Kia","Turnersville Kia - DARWIN","2900 Route 42","Sicklerville","NJ","08081","855-627-0916",,"A","Noemail@DarwinAutomotive.com","Noemail@DarwinAutomotive.com","Noemail@DarwinAutomotive.com",,,,,,
"DRW","6657","6657","Burlington Kia","Burlington Kia - DARWIN","4428 Route 130","Burlington ","NJ","08016","844-939-0651",,"A","Noemail@DarwinAutomotive.com","Noemail@DarwinAutomotive.com","Noemail@DarwinAutomotive.com",,,,,,
"DRW","6659","6659","Raceway Kia","Raceway Kia - DARWIN","4044 US 9","Freehold Township","NJ","07728","762-462-4422",,"A","Noemail@DarwinAutomotive.com","Noemail@DarwinAutomotive.com","Noemail@DarwinAutomotive.com",,,,,,
"DRW","6660","6660","Raceway Chevrolet","Raceway Chevrolet - DARWIN","1124 Hellertown Rd","Bethlehem","PA","18015","610-838-2100",,"A","Noemail@DarwinAutomotive.com","Noemail@DarwinAutomotive.com","Noemail@DarwinAutomotive.com",,,,,,
"DRW","6661","6661","Allentown Kia","Allentown Kia - DARWIN","2350 Lehigh St","Allentown","PA","18103","610-628-3126",,"A","Noemail@DarwinAutomotive.com","Noemail@DarwinAutomotive.com","Noemail@DarwinAutomotive.com",,,,,,
"DRW","6662","6662","BMW Corpus Christi","BMW Corpus Christi - DARWIN","7601 SPID","Corpus Christi","TX","78412","(361) 991-5555",,"A","Noemail@DarwinAutomotive.com","Noemail@DarwinAutomotive.com","Noemail@DarwinAutomotive.com",,,,,,
"DRW","6663","6663","Principle Toyota","Principle Toyota - DARWIN","7370 Windchester Road","Memphis","TN","38125","(901) 522-6318",,"A","Noemail@DarwinAutomotive.com","Noemail@DarwinAutomotive.com","Noemail@DarwinAutomotive.com",,,,,,
"DRW","6665","6665","Infiniti of Boerne","Infiniti of Boerne - DARWIN","32275 Interstate 10 West","Boerne","TX","78006","210-477-1793",,"A","Noemail@DarwinAutomotive.com","Noemail@DarwinAutomotive.com","Noemail@DarwinAutomotive.com",,,,,,
"DRW","6666","6666","Principle Volvo of San Antonio","Principle Volvo of San Antonio - DARWIN","1326 NE Loop 410","San Antonio","TX","78209","(210) 824-3214",,"A","Noemail@DarwinAutomotive.com","Noemail@DarwinAutomotive.com","Noemail@DarwinAutomotive.com",,,,,,
"DRW","6667","6667","BMW Mini of San Antonio","BMW Mini of San Antonio - DARWIN","15507 I-10","San Antonio","TX","78249","210-732-7121",,"A","Noemail@DarwinAutomotive.com","Noemail@DarwinAutomotive.com","Noemail@DarwinAutomotive.com",,,,,,
"DRW","6668","6668","North Coast Subaru","North Coast Subaru - DARWIN","105 Glen St","Glen Cove","NY","11542","(631) 894-4070",,"A","Noemail@DarwinAutomotive.com","Noemail@DarwinAutomotive.com","Noemail@DarwinAutomotive.com",,,,,,
"DRW","6669","6669","Burlington Volkswagen","Burlington Volkswagen - DARWIN","4500 Rt 130","Burlington","NJ","08016","609-534-7993",,"A","Noemail@DarwinAutomotive.com","Noemail@DarwinAutomotive.com","Noemail@DarwinAutomotive.com",,,,,,
"DRW","6670","6670","Douglass Nissan of Waco","Douglass Nissan of Waco - DARWIN","5605 Legend Lake Pkwy","Waco","TX","76712","254-776-8016",,"A","Noemail@DarwinAutomotive.com","Noemail@DarwinAutomotive.com","Noemail@DarwinAutomotive.com",,,,,,
"DRW","6673","6673","J. Bertolet VW","J. Bertolet VW - DARWIN","555 PA-61","Orwigsburg","PA","17961","(570) 366-0501",,"A","Noemail@DarwinAutomotive.com","Noemail@DarwinAutomotive.com","Noemail@DarwinAutomotive.com",,,,,,
"DRW","6675","6675","Bay Ridge Subaru","Bay Ridge Subaru - DARWIN","1819 Cropsey Ave","Brooklyn","NY","11214","888-435-1441",,"A","Noemail@DarwinAutomotive.com","Noemail@DarwinAutomotive.com","Noemail@DarwinAutomotive.com",,,,,,
"DRW","6678","6678","Anderson Toyota Lexus","Anderson Toyota Lexus - DARWIN","4100 N. Perryville","Loves Park","IL","61111","(815) 397-8995",,"A","Noemail@DarwinAutomotive.com","Noemail@DarwinAutomotive.com","Noemail@DarwinAutomotive.com",,,,,,
"DRW","6679","6679","Hyundai on Perryville","Hyundai on Perryville - DARWIN","343 N. Perryville Road","Perryville","IL","61107","(815) 229-0089",,"A","Noemail@DarwinAutomotive.com","Noemail@DarwinAutomotive.com","Noemail@DarwinAutomotive.com",,,,,,
"DRW","6680","6680","Anderson Nissan Mazda","Anderson Nissan Mazda - DARWIN","6555 East State Street","Rockford","IL","61108","815-633-3461",,"A","Noemail@DarwinAutomotive.com","Noemail@DarwinAutomotive.com","Noemail@DarwinAutomotive.com",,,,,,
"DRW","6681","6681","Anderson Rock River Ford Kia","Anderson Rock River Ford Kia - DARWIN","224 N. Alpine Road ","Rocford","IL","61107","(815) 229-0510",,"A","Noemail@DarwinAutomotive.com","Noemail@DarwinAutomotive.com","Noemail@DarwinAutomotive.com",,,,,,
"DRW","6682","6682","Crystal Lake BMW Mazda VW","Crystal Lake BMW Mazda VW - DARWIN","360 North Illinois Route 31 ","Crystal Lake","IL","60014","(815) 455-4330",,"A","Noemail@DarwinAutomotive.com","Noemail@DarwinAutomotive.com","Noemail@DarwinAutomotive.com",,,,,,
"DRW","6683","6683","Anderson Dodge Chrysler Jeep Ram","Anderson Dodge Chrysler Jeep Ram - DARWIN","5711 E State St","Rockford","IL","61108"," (815) 229-2000",,"A","Noemail@DarwinAutomotive.com","Noemail@DarwinAutomotive.com","Noemail@DarwinAutomotive.com",,,,,,
"DRW","6685","6685","Mike Kelly Chevrolet of Butler","Mike Kelly Chevrolet of Butler - DARWIN","252 Pittsburgh Rd","Butler","PA","16002","(724) 287-2701",,"A","Noemail@DarwinAutomotive.com","Noemail@DarwinAutomotive.com","Noemail@DarwinAutomotive.com",,,,,,
"DRW","6686","6686","Mike Kelly Cadillac of Butler","Mike Kelly Cadillac of Butler - DARWIN","252 Pittsburgh Rd","Butler","PA","16002","(724) 287-2701",,"A","Noemail@DarwinAutomotive.com","Noemail@DarwinAutomotive.com","Noemail@DarwinAutomotive.com",,,,,,
"DRW","6699","6699","Marietta Auto Sales","Marietta Auto Sales - DARWIN","1666 Roswell Rd #400","Marietta","GA","30062","(770) 973-8077",,"A","Noemail@DarwinAutomotive.com","Noemail@DarwinAutomotive.com","Noemail@DarwinAutomotive.com",,,,,,
"DRW","6700","6700","Manahawkin Kia","Manahawkin Kia - DARWIN","270 Route 72","Manahawkin","NJ","08050","609-597-2501",,"A","Noemail@DarwinAutomotive.com","Noemail@DarwinAutomotive.com","Noemail@DarwinAutomotive.com",,,,,,
"DRW","6710","6710","Doug Smith CDJR American Fork","Doug Smith CDJR American Fork - DARWIN","523 W. Main Street","American Fork","UT","84003","801-847-1041",,"A","Noemail@DarwinAutomotive.com","Noemail@DarwinAutomotive.com","Noemail@DarwinAutomotive.com",,,,,,
"DRW","6711","6711","Doug Smith Kia","Doug Smith Kia - DARWIN","495 N. Main Street","American Fork","UT","84003","801-692-4390",,"A","Noemail@DarwinAutomotive.com","Noemail@DarwinAutomotive.com","Noemail@DarwinAutomotive.com",,,,,,
"DRW","6712","6712","Doug Smith Subaru","Doug Smith Subaru - DARWIN","501 W. Main Street","American Fork","UT","84003","801-980-1438",,"A","Noemail@DarwinAutomotive.com","Noemail@DarwinAutomotive.com","Noemail@DarwinAutomotive.com",,,,,,
"DRW","6713","6713","Doug Smith CDJR Spanish Fork","Doug Smith CDJR Spanish Fork - DARWIN","1339 N. Main Street","Spanish Fork","UT","84660","801-798-7431",,"A","Noemail@DarwinAutomotive.com","Noemail@DarwinAutomotive.com","Noemail@DarwinAutomotive.com",,,,,,
"DRW","6714","6714","Doug Smith Chevrolet","Doug Smith Chevrolet - DARWIN","1341 N. Main Street","Spanish Fork","UT","84660","801-841-3131",,"A","Noemail@DarwinAutomotive.com","Noemail@DarwinAutomotive.com","Noemail@DarwinAutomotive.com",,,,,,
"DRW","6717","6717","Eastchester CJDR","Eastchester CJDR - DARWIN","4007 Boston Rd","Bronx","NY","10466","866-980-0707",,"A","Noemail@DarwinAutomotive.com","Noemail@DarwinAutomotive.com","Noemail@DarwinAutomotive.com",,,,,,
"DRW","6718","6718","Kia of West Nyack","Kia of West Nyack - DARWIN","250 North Route 303","West Nyack","NY","10994","877-915-4949",,"A","Noemail@DarwinAutomotive.com","Noemail@DarwinAutomotive.com","Noemail@DarwinAutomotive.com",,,,,,
"DRW","6724","6724","Ed Carroll Motor Co","Ed Carroll Motor Co - DARWIN","3003 S College Ave","Fort Collins","CO","80525","970-226-3000",,"A","Noemail@DarwinAutomotive.com","Noemail@DarwinAutomotive.com","Noemail@DarwinAutomotive.com",,,,,,
"DRW","6728","6728","Five Star Subaru of Oneonta, Inc.","Five Star Subaru of Oneonta, Inc. - DARWIN","331 Chestnut St.","Oneonta","NY","13820","(607) 432-0201",,"A","Noemail@DarwinAutomotive.com","Noemail@DarwinAutomotive.com","Noemail@DarwinAutomotive.com",,,,,,
"DRW","6729","6729","Lee Hyundai","Lee Hyundai - DARWIN","1960 Skibo Rd ","Fayetteville","NC","28314","(910) 864-7100",,"A","Noemail@DarwinAutomotive.com","Noemail@DarwinAutomotive.com","Noemail@DarwinAutomotive.com",,,,,,
"DRW","6733","6733","Volvo Cars of Austin","Volvo Cars of Austin - DARWIN"," 7216 N Interstate 35","Austin","TX","78752","512-706-7000",,"A","Noemail@DarwinAutomotive.com","Noemail@DarwinAutomotive.com","Noemail@DarwinAutomotive.com",,,,,,
"DRW","6744","6744","Volkswagen of West Islip","Volkswagen of West Islip - DARWIN","130 W Sunrise Hwy","West Islip","NY","11795","(631) 650-3400",,"A","Noemail@DarwinAutomotive.com","Noemail@DarwinAutomotive.com","Noemail@DarwinAutomotive.com",,,,,,
"DRW","6745","6745","Subaru of Georgetown","Subaru of Georgetown - DARWIN","7501 N Interstate 35 Frontage Rd","Georgetown","TX","78626","888-379-9852",,"A","Noemail@DarwinAutomotive.com","Noemail@DarwinAutomotive.com","Noemail@DarwinAutomotive.com",,,,,,
"DRW","6755","6755","MY Nissan Kia (CA)","MY Nissan Kia (CA) - DARWIN","222 Auto Center Circle ","Salinas","CA","93907","831-444-8888",,"A","Noemail@DarwinAutomotive.com","Noemail@DarwinAutomotive.com","Noemail@DarwinAutomotive.com",,,,,,
"DRW","6758","6758","Franklin Sussex Hyundai","Franklin Sussex Hyundai - DARWIN","499 NJ 23","Sussex","NJ","07461","888-541-1327",,"A","Noemail@DarwinAutomotive.com","Noemail@DarwinAutomotive.com","Noemail@DarwinAutomotive.com",,,,,,
"DRW","6761","6761","Nielsen DCJR","Nielsen DCJR - DARWIN","175 NJ 10","East Hanover","NJ","07936","877-574-8648",,"A","Noemail@DarwinAutomotive.com","Noemail@DarwinAutomotive.com","Noemail@DarwinAutomotive.com",,,,,,
"DRW","6770","6770","Highland Volkswagen","Highland Volkswagen - DARWIN","9601 Indianapolis Boulevard","Highland","IN","46322","219-237-2200",,"A","Noemail@DarwinAutomotive.com","Noemail@DarwinAutomotive.com","Noemail@DarwinAutomotive.com",,,,,,
"DRW","6819","6819","Doyle Subaru","Doyle Subaru - DARWIN","740 Ridge Rd","Webster","NY","14580","(585) 671-5399",,"A","Noemail@DarwinAutomotive.com","Noemail@DarwinAutomotive.com","Noemail@DarwinAutomotive.com",,,,,,
"DRW","6827","6827","Gregoris Subaru","Gregoris Subaru - DARWIN","575 W Merrick Rd","Valley Stream","NY","11580","(516) 825-8700",,"A","Noemail@DarwinAutomotive.com","Noemail@DarwinAutomotive.com","Noemail@DarwinAutomotive.com",,,,,,
"DRW","6832","6832","Hoffman Nissan","Hoffman Nissan - DARWIN","46 Albany Turnpike","West Simsbury","CT","06092","860-658-3500",,"A","Noemail@DarwinAutomotive.com","Noemail@DarwinAutomotive.com","Noemail@DarwinAutomotive.com",,,,,,
"DRW","6834","6834","Hoffman Porsche of East Hartford","Hoffman Porsche of East Hartford - DARWIN","630 Connecticut Blvd","East Hartford","CT","06108","(860) 289-7721",,"A","Noemail@DarwinAutomotive.com","Noemail@DarwinAutomotive.com","Noemail@DarwinAutomotive.com",,,,,,
"DRW","6835","6835","Hoffman Audi of East Hartford","Hoffman Audi of East Hartford - DARWIN","700 Connecticut Blvd","East Hartford","CT","06108","855-410-6097",,"A","Noemail@DarwinAutomotive.com","Noemail@DarwinAutomotive.com","Noemail@DarwinAutomotive.com",,,,,,
"DRW","6839","6839","Hoffman Honda","Hoffman Honda - DARWIN","40 Albany Turnpike","West Simsbury","CT","06092","(860) 651-3501",,"A","Noemail@DarwinAutomotive.com","Noemail@DarwinAutomotive.com","Noemail@DarwinAutomotive.com",,,,,,
"DRW","6840","6840","Brandon Volkswagen","Brandon Volkswagen - DARWIN","9816 E Adamo Dr","Tampa","FL","33619","(813) 630-4000",,"A","Noemail@DarwinAutomotive.com","Noemail@DarwinAutomotive.com","Noemail@DarwinAutomotive.com",,,,,,
"DRW","6841","6841","Kuhn Volkswagen","Kuhn Volkswagen - DARWIN","3900 W Kennedy Blvd","Tampa","FL","33609","(813) 872-4841",,"A","Noemail@DarwinAutomotive.com","Noemail@DarwinAutomotive.com","Noemail@DarwinAutomotive.com",,,,,,
"DRW","6854","6854","Concordville Subaru Glen Mills","Concordville Subaru Glen Mills - DARWIN","1713 Wilmington West Chester Pike","Glen Mills","PA","19342","888-351-6493",,"A","Noemail@DarwinAutomotive.com","Noemail@DarwinAutomotive.com","Noemail@DarwinAutomotive.com",,,,,,
"DRW","6855","6855","Concordville Nissan Glen Mills","Concordville Nissan Glen Mills - DARWIN","452 Wilmington West Chester Pike","Glen Mills","PA","19342","(610) 459-8900",,"A","Noemail@DarwinAutomotive.com","Noemail@DarwinAutomotive.com","Noemail@DarwinAutomotive.com",,,,,,
"DRW","6892","6892","Sullivan Honda","Sullivan Honda - DARWIN","2015 East Main St","Torrington","CT","06790","877-358-5149",,"A","Noemail@DarwinAutomotive.com","Noemail@DarwinAutomotive.com","Noemail@DarwinAutomotive.com",,,,,,
"DRW","6898","6898","Lithia Subaru of Walnut Creek Diablo","Lithia Subaru of Walnut Creek Diablo - DARWIN","2646 N Main St","Walnut Creek","CA","94597","925-937-6900",,"A","Noemail@DarwinAutomotive.com","Noemail@DarwinAutomotive.com","Noemail@DarwinAutomotive.com",,,,,,
"DRW","6920","6920","Aloha Kia - Nimitz Hwy","Aloha Kia - Nimitz Hwy - DARWIN","2841 N Nimitz Hwy","Honolulu","HI","96819","(808) 833-9000",,"A","Noemail@DarwinAutomotive.com","Noemail@DarwinAutomotive.com","Noemail@DarwinAutomotive.com",,,,,,
"DRW","6927","6927","East Hills Subaru","East Hills Subaru - DARWIN","1039 Northern Blvd","Roslyn","NY","11576","888-384-4682",,"A","Noemail@DarwinAutomotive.com","Noemail@DarwinAutomotive.com","Noemail@DarwinAutomotive.com",,,,,,
"DRW","6938","6938","Land Rover Palm Beach","Land Rover Palm Beach - DARWIN","7550 Okeechobee Blvd","West Palm Beach","FL","33441","800-866-8206",,"A","Noemail@DarwinAutomotive.com","Noemail@DarwinAutomotive.com","Noemail@DarwinAutomotive.com",,,,,,
"DRW","6972","6972","Jaguar Palm Beach","Jaguar Palm Beach - DARWIN","915 S Dixie Hwy","West Palm Beach","FL","33401","866-296-7709",,"A","Noemail@DarwinAutomotive.com","Noemail@DarwinAutomotive.com","Noemail@DarwinAutomotive.com",,,,,,
"DRW","7012","7012","Freeland Chevrolet","Freeland Chevrolet - DARWIN","5333 Hickory Hollow Pwy","Antioch","TN","37013","615-731-3000",,"A","Noemail@DarwinAutomotive.com","Noemail@DarwinAutomotive.com","Noemail@DarwinAutomotive.com",,,,,,
"DRW","7044","7044","Donaldsons Inc. Subaru","Donaldsons Inc. Subaru - DARWIN","5700 Sunrise Hwy","Sayville","NY","11782","(631) 567-6400",,"A","Noemail@DarwinAutomotive.com","Noemail@DarwinAutomotive.com","Noemail@DarwinAutomotive.com",,,,,,
"DRW","7123","7123","Reydel Volkswagen of Linden","Reydel Volkswagen of Linden - DARWIN","401 St Georges Ave","Roselle","NJ","07203","908-486-3977",,"A","Noemail@DarwinAutomotive.com","Noemail@DarwinAutomotive.com","Noemail@DarwinAutomotive.com",,,,,,
"DRW","7124","7124","Reydel Volkswagen Inc","Reydel Volkswagen Inc - DARWIN","2034 Rte 27","Edison","NJ","08818","732-287-2828",,"A","Noemail@DarwinAutomotive.com","Noemail@DarwinAutomotive.com","Noemail@DarwinAutomotive.com",,,,,,
"DRW","7133","7133","Route 46 Subaru","Route 46 Subaru - DARWIN","364 Route 46 West","Hackettstown","NJ","07840","(908) 509-9000",,"A","Noemail@DarwinAutomotive.com","Noemail@DarwinAutomotive.com","Noemail@DarwinAutomotive.com",,,,,,
"DRW","7175","7175","Herrnstein Hyundai","Herrnstein Hyundai - DARWIN","2827 River Rd","Chillicothe","OH","45601","(740) 779-6555",,"A","Noemail@DarwinAutomotive.com","Noemail@DarwinAutomotive.com","Noemail@DarwinAutomotive.com",,,,,,
"DRW","7178","7178","Matt Castrucci KIA","Matt Castrucci KIA - DARWIN","3013 Mall Park Dr","Dayton","OH","45459","(855) 250-8987",,"A","Noemail@DarwinAutomotive.com","Noemail@DarwinAutomotive.com","Noemail@DarwinAutomotive.com",,,,,,
